<?xml version="1.0" encoding="UTF-8"?>
<gpx creator="StravaGPX" version="1.1" xmlns="http://www.topografix.com/GPX/1/1" xmlns:xsi="http://www.w3.org/2001/XMLSchema-instance" xsi:schemaLocation="http://www.topografix.com/GPX/1/1 http://www.topografix.com/GPX/1/1/gpx.xsd">
 <trk>
  <name>Carrera de montaña a la hora del almuerzo</name>
  <type>running</type>
  <trkseg>
   <trkpt lat="42.1350150" lon="1.5922010">
    <ele>937.6</ele>
   </trkpt>
   <trkpt lat="42.1350130" lon="1.5921910">
    <ele>937.6</ele>
   </trkpt>
   <trkpt lat="42.1350210" lon="1.5921560">
    <ele>937.6</ele>
   </trkpt>
   <trkpt lat="42.1350280" lon="1.5920980">
    <ele>937.8</ele>
   </trkpt>
   <trkpt lat="42.1350340" lon="1.5920720">
    <ele>937.8</ele>
   </trkpt>
   <trkpt lat="42.1350480" lon="1.5920500">
    <ele>938.0</ele>
   </trkpt>
   <trkpt lat="42.1350610" lon="1.5920230">
    <ele>938.4</ele>
   </trkpt>
   <trkpt lat="42.1350910" lon="1.5919950">
    <ele>938.8</ele>
   </trkpt>
   <trkpt lat="42.1351030" lon="1.5919620">
    <ele>939.2</ele>
   </trkpt>
   <trkpt lat="42.1351550" lon="1.5919000">
    <ele>939.6</ele>
   </trkpt>
   <trkpt lat="42.1351980" lon="1.5918390">
    <ele>939.8</ele>
   </trkpt>
   <trkpt lat="42.1352120" lon="1.5918070">
    <ele>940.0</ele>
   </trkpt>
   <trkpt lat="42.1352160" lon="1.5917700">
    <ele>941.0</ele>
   </trkpt>
   <trkpt lat="42.1352210" lon="1.5917330">
    <ele>941.4</ele>
   </trkpt>
   <trkpt lat="42.1352440" lon="1.5916930">
    <ele>942.0</ele>
   </trkpt>
   <trkpt lat="42.1352680" lon="1.5916820">
    <ele>942.8</ele>
   </trkpt>
   <trkpt lat="42.1353180" lon="1.5916760">
    <ele>943.0</ele>
   </trkpt>
   <trkpt lat="42.1353320" lon="1.5916690">
    <ele>943.0</ele>
   </trkpt>
   <trkpt lat="42.1353180" lon="1.5916540">
    <ele>943.0</ele>
   </trkpt>
   <trkpt lat="42.1353200" lon="1.5916590">
    <ele>943.2</ele>
   </trkpt>
   <trkpt lat="42.1353100" lon="1.5915090">
    <ele>943.4</ele>
   </trkpt>
   <trkpt lat="42.1353330" lon="1.5914860">
    <ele>943.8</ele>
   </trkpt>
   <trkpt lat="42.1353810" lon="1.5914450">
    <ele>944.2</ele>
   </trkpt>
   <trkpt lat="42.1353890" lon="1.5914020">
    <ele>944.4</ele>
   </trkpt>
   <trkpt lat="42.1353990" lon="1.5910640">
    <ele>944.6</ele>
   </trkpt>
   <trkpt lat="42.1354390" lon="1.5910490">
    <ele>944.8</ele>
   </trkpt>
   <trkpt lat="42.1354570" lon="1.5910080">
    <ele>945.2</ele>
   </trkpt>
   <trkpt lat="42.1354880" lon="1.5909670">
    <ele>945.6</ele>
   </trkpt>
   <trkpt lat="42.1355380" lon="1.5909310">
    <ele>946.6</ele>
   </trkpt>
   <trkpt lat="42.1355460" lon="1.5909030">
    <ele>947.2</ele>
   </trkpt>
   <trkpt lat="42.1355490" lon="1.5908690">
    <ele>947.6</ele>
   </trkpt>
   <trkpt lat="42.1355560" lon="1.5908100">
    <ele>948.2</ele>
   </trkpt>
   <trkpt lat="42.1355980" lon="1.5907890">
    <ele>949.0</ele>
   </trkpt>
   <trkpt lat="42.1356100" lon="1.5907720">
    <ele>949.4</ele>
   </trkpt>
   <trkpt lat="42.1356240" lon="1.5907620">
    <ele>949.4</ele>
   </trkpt>
   <trkpt lat="42.1356910" lon="1.5907290">
    <ele>950.2</ele>
   </trkpt>
   <trkpt lat="42.1357020" lon="1.5907120">
    <ele>950.8</ele>
   </trkpt>
   <trkpt lat="42.1357100" lon="1.5906930">
    <ele>951.0</ele>
   </trkpt>
   <trkpt lat="42.1357210" lon="1.5906770">
    <ele>951.4</ele>
   </trkpt>
   <trkpt lat="42.1357570" lon="1.5906460">
    <ele>951.8</ele>
   </trkpt>
   <trkpt lat="42.1357980" lon="1.5906000">
    <ele>952.2</ele>
   </trkpt>
   <trkpt lat="42.1358120" lon="1.5905400">
    <ele>952.4</ele>
   </trkpt>
   <trkpt lat="42.1358620" lon="1.5904600">
    <ele>953.0</ele>
   </trkpt>
   <trkpt lat="42.1358810" lon="1.5903920">
    <ele>954.6</ele>
   </trkpt>
   <trkpt lat="42.1359990" lon="1.5901990">
    <ele>955.2</ele>
   </trkpt>
   <trkpt lat="42.1359730" lon="1.5901770">
    <ele>955.4</ele>
   </trkpt>
   <trkpt lat="42.1359900" lon="1.5901390">
    <ele>955.8</ele>
   </trkpt>
   <trkpt lat="42.1360120" lon="1.5900790">
    <ele>956.4</ele>
   </trkpt>
   <trkpt lat="42.1360200" lon="1.5900580">
    <ele>957.0</ele>
   </trkpt>
   <trkpt lat="42.1360360" lon="1.5900220">
    <ele>957.8</ele>
   </trkpt>
   <trkpt lat="42.1360570" lon="1.5900080">
    <ele>958.2</ele>
   </trkpt>
   <trkpt lat="42.1360630" lon="1.5899920">
    <ele>958.6</ele>
   </trkpt>
   <trkpt lat="42.1361360" lon="1.5899630">
    <ele>959.2</ele>
   </trkpt>
   <trkpt lat="42.1362130" lon="1.5900220">
    <ele>959.6</ele>
   </trkpt>
   <trkpt lat="42.1363920" lon="1.5900550">
    <ele>960.0</ele>
   </trkpt>
   <trkpt lat="42.1364570" lon="1.5900660">
    <ele>960.2</ele>
   </trkpt>
   <trkpt lat="42.1365550" lon="1.5901100">
    <ele>960.2</ele>
   </trkpt>
   <trkpt lat="42.1366290" lon="1.5901170">
    <ele>960.0</ele>
   </trkpt>
   <trkpt lat="42.1366260" lon="1.5901400">
    <ele>959.8</ele>
   </trkpt>
   <trkpt lat="42.1366500" lon="1.5901570">
    <ele>959.8</ele>
   </trkpt>
   <trkpt lat="42.1368240" lon="1.5902760">
    <ele>959.8</ele>
   </trkpt>
   <trkpt lat="42.1368820" lon="1.5903150">
    <ele>959.8</ele>
   </trkpt>
   <trkpt lat="42.1370130" lon="1.5904190">
    <ele>960.0</ele>
   </trkpt>
   <trkpt lat="42.1372060" lon="1.5904480">
    <ele>960.0</ele>
   </trkpt>
   <trkpt lat="42.1372620" lon="1.5904870">
    <ele>960.0</ele>
   </trkpt>
   <trkpt lat="42.1372960" lon="1.5905510">
    <ele>959.6</ele>
   </trkpt>
   <trkpt lat="42.1373180" lon="1.5905850">
    <ele>959.2</ele>
   </trkpt>
   <trkpt lat="42.1373370" lon="1.5905950">
    <ele>959.2</ele>
   </trkpt>
   <trkpt lat="42.1374230" lon="1.5905820">
    <ele>959.2</ele>
   </trkpt>
   <trkpt lat="42.1374900" lon="1.5906420">
    <ele>959.2</ele>
   </trkpt>
   <trkpt lat="42.1375410" lon="1.5907930">
    <ele>959.2</ele>
   </trkpt>
   <trkpt lat="42.1375410" lon="1.5907720">
    <ele>959.4</ele>
   </trkpt>
   <trkpt lat="42.1375980" lon="1.5908000">
    <ele>960.2</ele>
   </trkpt>
   <trkpt lat="42.1376260" lon="1.5908250">
    <ele>960.6</ele>
   </trkpt>
   <trkpt lat="42.1377030" lon="1.5908490">
    <ele>961.0</ele>
   </trkpt>
   <trkpt lat="42.1377960" lon="1.5908190">
    <ele>961.0</ele>
   </trkpt>
   <trkpt lat="42.1378320" lon="1.5907960">
    <ele>961.6</ele>
   </trkpt>
   <trkpt lat="42.1378990" lon="1.5907040">
    <ele>962.2</ele>
   </trkpt>
   <trkpt lat="42.1379960" lon="1.5905600">
    <ele>962.4</ele>
   </trkpt>
   <trkpt lat="42.1380610" lon="1.5905080">
    <ele>962.4</ele>
   </trkpt>
   <trkpt lat="42.1381010" lon="1.5904920">
    <ele>962.8</ele>
   </trkpt>
   <trkpt lat="42.1381200" lon="1.5904840">
    <ele>963.0</ele>
   </trkpt>
   <trkpt lat="42.1381600" lon="1.5904070">
    <ele>963.4</ele>
   </trkpt>
   <trkpt lat="42.1381720" lon="1.5903870">
    <ele>963.6</ele>
   </trkpt>
   <trkpt lat="42.1382030" lon="1.5902880">
    <ele>963.6</ele>
   </trkpt>
   <trkpt lat="42.1382190" lon="1.5901930">
    <ele>964.0</ele>
   </trkpt>
   <trkpt lat="42.1382600" lon="1.5901070">
    <ele>964.4</ele>
   </trkpt>
   <trkpt lat="42.1383160" lon="1.5900080">
    <ele>965.2</ele>
   </trkpt>
   <trkpt lat="42.1383540" lon="1.5899430">
    <ele>965.2</ele>
   </trkpt>
   <trkpt lat="42.1383590" lon="1.5898610">
    <ele>965.6</ele>
   </trkpt>
   <trkpt lat="42.1383680" lon="1.5898220">
    <ele>965.8</ele>
   </trkpt>
   <trkpt lat="42.1383810" lon="1.5897450">
    <ele>966.2</ele>
   </trkpt>
   <trkpt lat="42.1383960" lon="1.5897090">
    <ele>966.2</ele>
   </trkpt>
   <trkpt lat="42.1384440" lon="1.5895250">
    <ele>966.8</ele>
   </trkpt>
   <trkpt lat="42.1384800" lon="1.5894960">
    <ele>967.4</ele>
   </trkpt>
   <trkpt lat="42.1385460" lon="1.5893890">
    <ele>967.2</ele>
   </trkpt>
   <trkpt lat="42.1386830" lon="1.5892030">
    <ele>967.6</ele>
   </trkpt>
   <trkpt lat="42.1388000" lon="1.5890400">
    <ele>967.6</ele>
   </trkpt>
   <trkpt lat="42.1388240" lon="1.5890070">
    <ele>967.6</ele>
   </trkpt>
   <trkpt lat="42.1389460" lon="1.5888110">
    <ele>967.4</ele>
   </trkpt>
   <trkpt lat="42.1390520" lon="1.5886410">
    <ele>967.2</ele>
   </trkpt>
   <trkpt lat="42.1391600" lon="1.5885560">
    <ele>967.2</ele>
   </trkpt>
   <trkpt lat="42.1392040" lon="1.5885140">
    <ele>967.2</ele>
   </trkpt>
   <trkpt lat="42.1392920" lon="1.5884320">
    <ele>967.0</ele>
   </trkpt>
   <trkpt lat="42.1393990" lon="1.5883110">
    <ele>967.2</ele>
   </trkpt>
   <trkpt lat="42.1395220" lon="1.5881980">
    <ele>967.4</ele>
   </trkpt>
   <trkpt lat="42.1395810" lon="1.5881360">
    <ele>967.4</ele>
   </trkpt>
   <trkpt lat="42.1396910" lon="1.5880320">
    <ele>967.0</ele>
   </trkpt>
   <trkpt lat="42.1397180" lon="1.5880120">
    <ele>967.0</ele>
   </trkpt>
   <trkpt lat="42.1398410" lon="1.5879120">
    <ele>967.4</ele>
   </trkpt>
   <trkpt lat="42.1398610" lon="1.5878970">
    <ele>967.6</ele>
   </trkpt>
   <trkpt lat="42.1399840" lon="1.5877790">
    <ele>968.2</ele>
   </trkpt>
   <trkpt lat="42.1400260" lon="1.5877350">
    <ele>968.6</ele>
   </trkpt>
   <trkpt lat="42.1401190" lon="1.5876190">
    <ele>968.6</ele>
   </trkpt>
   <trkpt lat="42.1402200" lon="1.5874250">
    <ele>969.6</ele>
   </trkpt>
   <trkpt lat="42.1402250" lon="1.5874000">
    <ele>969.6</ele>
   </trkpt>
   <trkpt lat="42.1402500" lon="1.5873350">
    <ele>969.6</ele>
   </trkpt>
   <trkpt lat="42.1402530" lon="1.5873070">
    <ele>969.6</ele>
   </trkpt>
   <trkpt lat="42.1403020" lon="1.5871860">
    <ele>969.6</ele>
   </trkpt>
   <trkpt lat="42.1403380" lon="1.5871210">
    <ele>970.0</ele>
   </trkpt>
   <trkpt lat="42.1403460" lon="1.5870930">
    <ele>970.2</ele>
   </trkpt>
   <trkpt lat="42.1403460" lon="1.5870580">
    <ele>970.4</ele>
   </trkpt>
   <trkpt lat="42.1403700" lon="1.5869240">
    <ele>970.6</ele>
   </trkpt>
   <trkpt lat="42.1404110" lon="1.5868090">
    <ele>970.6</ele>
   </trkpt>
   <trkpt lat="42.1404140" lon="1.5867740">
    <ele>970.6</ele>
   </trkpt>
   <trkpt lat="42.1405920" lon="1.5865370">
    <ele>971.2</ele>
   </trkpt>
   <trkpt lat="42.1407400" lon="1.5863590">
    <ele>971.6</ele>
   </trkpt>
   <trkpt lat="42.1407700" lon="1.5862740">
    <ele>971.6</ele>
   </trkpt>
   <trkpt lat="42.1407800" lon="1.5862360">
    <ele>971.8</ele>
   </trkpt>
   <trkpt lat="42.1408260" lon="1.5860490">
    <ele>972.2</ele>
   </trkpt>
   <trkpt lat="42.1408370" lon="1.5860080">
    <ele>972.0</ele>
   </trkpt>
   <trkpt lat="42.1408730" lon="1.5858210">
    <ele>971.4</ele>
   </trkpt>
   <trkpt lat="42.1408820" lon="1.5856700">
    <ele>971.0</ele>
   </trkpt>
   <trkpt lat="42.1408850" lon="1.5855510">
    <ele>971.4</ele>
   </trkpt>
   <trkpt lat="42.1408750" lon="1.5852760">
    <ele>971.0</ele>
   </trkpt>
   <trkpt lat="42.1408710" lon="1.5852360">
    <ele>971.0</ele>
   </trkpt>
   <trkpt lat="42.1408380" lon="1.5850590">
    <ele>971.0</ele>
   </trkpt>
   <trkpt lat="42.1408320" lon="1.5850000">
    <ele>970.6</ele>
   </trkpt>
   <trkpt lat="42.1407990" lon="1.5848220">
    <ele>970.0</ele>
   </trkpt>
   <trkpt lat="42.1407420" lon="1.5845950">
    <ele>970.6</ele>
   </trkpt>
   <trkpt lat="42.1407370" lon="1.5845000">
    <ele>970.4</ele>
   </trkpt>
   <trkpt lat="42.1407420" lon="1.5843420">
    <ele>970.6</ele>
   </trkpt>
   <trkpt lat="42.1408410" lon="1.5841980">
    <ele>970.8</ele>
   </trkpt>
   <trkpt lat="42.1409850" lon="1.5841000">
    <ele>971.0</ele>
   </trkpt>
   <trkpt lat="42.1410910" lon="1.5840440">
    <ele>971.6</ele>
   </trkpt>
   <trkpt lat="42.1411710" lon="1.5840150">
    <ele>972.0</ele>
   </trkpt>
   <trkpt lat="42.1412430" lon="1.5839950">
    <ele>972.6</ele>
   </trkpt>
   <trkpt lat="42.1412960" lon="1.5839930">
    <ele>972.8</ele>
   </trkpt>
   <trkpt lat="42.1414010" lon="1.5840430">
    <ele>973.4</ele>
   </trkpt>
   <trkpt lat="42.1415440" lon="1.5841540">
    <ele>973.0</ele>
   </trkpt>
   <trkpt lat="42.1416070" lon="1.5842370">
    <ele>973.6</ele>
   </trkpt>
   <trkpt lat="42.1416710" lon="1.5843450">
    <ele>974.0</ele>
   </trkpt>
   <trkpt lat="42.1416760" lon="1.5845520">
    <ele>974.6</ele>
   </trkpt>
   <trkpt lat="42.1416870" lon="1.5845780">
    <ele>975.0</ele>
   </trkpt>
   <trkpt lat="42.1417360" lon="1.5847330">
    <ele>975.2</ele>
   </trkpt>
   <trkpt lat="42.1417440" lon="1.5847680">
    <ele>975.4</ele>
   </trkpt>
   <trkpt lat="42.1417630" lon="1.5848720">
    <ele>975.8</ele>
   </trkpt>
   <trkpt lat="42.1417940" lon="1.5850000">
    <ele>976.0</ele>
   </trkpt>
   <trkpt lat="42.1418080" lon="1.5852570">
    <ele>976.6</ele>
   </trkpt>
   <trkpt lat="42.1418390" lon="1.5854430">
    <ele>976.8</ele>
   </trkpt>
   <trkpt lat="42.1418310" lon="1.5854780">
    <ele>977.0</ele>
   </trkpt>
   <trkpt lat="42.1418740" lon="1.5856340">
    <ele>977.2</ele>
   </trkpt>
   <trkpt lat="42.1419260" lon="1.5858390">
    <ele>977.0</ele>
   </trkpt>
   <trkpt lat="42.1419760" lon="1.5860490">
    <ele>976.4</ele>
   </trkpt>
   <trkpt lat="42.1420140" lon="1.5862600">
    <ele>976.0</ele>
   </trkpt>
   <trkpt lat="42.1420400" lon="1.5863290">
    <ele>975.8</ele>
   </trkpt>
   <trkpt lat="42.1421020" lon="1.5864660">
    <ele>974.6</ele>
   </trkpt>
   <trkpt lat="42.1421930" lon="1.5866050">
    <ele>973.8</ele>
   </trkpt>
   <trkpt lat="42.1422090" lon="1.5866330">
    <ele>973.6</ele>
   </trkpt>
   <trkpt lat="42.1422260" lon="1.5866620">
    <ele>973.2</ele>
   </trkpt>
   <trkpt lat="42.1422730" lon="1.5867000">
    <ele>972.6</ele>
   </trkpt>
   <trkpt lat="42.1423240" lon="1.5867540">
    <ele>971.8</ele>
   </trkpt>
   <trkpt lat="42.1423470" lon="1.5867820">
    <ele>971.6</ele>
   </trkpt>
   <trkpt lat="42.1424390" lon="1.5869280">
    <ele>970.6</ele>
   </trkpt>
   <trkpt lat="42.1424580" lon="1.5869550">
    <ele>970.2</ele>
   </trkpt>
   <trkpt lat="42.1425470" lon="1.5870970">
    <ele>968.8</ele>
   </trkpt>
   <trkpt lat="42.1426070" lon="1.5871790">
    <ele>967.8</ele>
   </trkpt>
   <trkpt lat="42.1426620" lon="1.5872510">
    <ele>967.0</ele>
   </trkpt>
   <trkpt lat="42.1426990" lon="1.5872990">
    <ele>966.6</ele>
   </trkpt>
   <trkpt lat="42.1427640" lon="1.5873760">
    <ele>966.0</ele>
   </trkpt>
   <trkpt lat="42.1428750" lon="1.5875150">
    <ele>965.4</ele>
   </trkpt>
   <trkpt lat="42.1428950" lon="1.5875400">
    <ele>965.2</ele>
   </trkpt>
   <trkpt lat="42.1429620" lon="1.5876160">
    <ele>964.4</ele>
   </trkpt>
   <trkpt lat="42.1430520" lon="1.5876940">
    <ele>963.6</ele>
   </trkpt>
   <trkpt lat="42.1430760" lon="1.5877190">
    <ele>963.2</ele>
   </trkpt>
   <trkpt lat="42.1431140" lon="1.5878160">
    <ele>962.2</ele>
   </trkpt>
   <trkpt lat="42.1431360" lon="1.5878440">
    <ele>962.0</ele>
   </trkpt>
   <trkpt lat="42.1431820" lon="1.5879560">
    <ele>961.0</ele>
   </trkpt>
   <trkpt lat="42.1431990" lon="1.5880130">
    <ele>960.4</ele>
   </trkpt>
   <trkpt lat="42.1432690" lon="1.5881520">
    <ele>959.8</ele>
   </trkpt>
   <trkpt lat="42.1432980" lon="1.5882190">
    <ele>959.2</ele>
   </trkpt>
   <trkpt lat="42.1433400" lon="1.5883340">
    <ele>958.6</ele>
   </trkpt>
   <trkpt lat="42.1433790" lon="1.5884450">
    <ele>958.0</ele>
   </trkpt>
   <trkpt lat="42.1433900" lon="1.5884820">
    <ele>957.6</ele>
   </trkpt>
   <trkpt lat="42.1434530" lon="1.5887090">
    <ele>956.6</ele>
   </trkpt>
   <trkpt lat="42.1434870" lon="1.5888590">
    <ele>955.4</ele>
   </trkpt>
   <trkpt lat="42.1435060" lon="1.5889320">
    <ele>955.0</ele>
   </trkpt>
   <trkpt lat="42.1435410" lon="1.5890430">
    <ele>954.2</ele>
   </trkpt>
   <trkpt lat="42.1435640" lon="1.5891200">
    <ele>953.4</ele>
   </trkpt>
   <trkpt lat="42.1435800" lon="1.5891980">
    <ele>953.2</ele>
   </trkpt>
   <trkpt lat="42.1436040" lon="1.5892790">
    <ele>952.8</ele>
   </trkpt>
   <trkpt lat="42.1436250" lon="1.5893570">
    <ele>952.2</ele>
   </trkpt>
   <trkpt lat="42.1436830" lon="1.5895830">
    <ele>951.8</ele>
   </trkpt>
   <trkpt lat="42.1437130" lon="1.5896960">
    <ele>951.2</ele>
   </trkpt>
   <trkpt lat="42.1437470" lon="1.5898090">
    <ele>950.4</ele>
   </trkpt>
   <trkpt lat="42.1437640" lon="1.5898490">
    <ele>950.0</ele>
   </trkpt>
   <trkpt lat="42.1437820" lon="1.5898810">
    <ele>949.8</ele>
   </trkpt>
   <trkpt lat="42.1438370" lon="1.5899690">
    <ele>949.0</ele>
   </trkpt>
   <trkpt lat="42.1438660" lon="1.5900330">
    <ele>948.6</ele>
   </trkpt>
   <trkpt lat="42.1439300" lon="1.5901610">
    <ele>947.8</ele>
   </trkpt>
   <trkpt lat="42.1440170" lon="1.5902830">
    <ele>947.0</ele>
   </trkpt>
   <trkpt lat="42.1440360" lon="1.5903110">
    <ele>946.6</ele>
   </trkpt>
   <trkpt lat="42.1441070" lon="1.5904200">
    <ele>945.6</ele>
   </trkpt>
   <trkpt lat="42.1441830" lon="1.5905660">
    <ele>944.6</ele>
   </trkpt>
   <trkpt lat="42.1442140" lon="1.5906210">
    <ele>943.8</ele>
   </trkpt>
   <trkpt lat="42.1442640" lon="1.5907010">
    <ele>943.2</ele>
   </trkpt>
   <trkpt lat="42.1443280" lon="1.5907670">
    <ele>942.0</ele>
   </trkpt>
   <trkpt lat="42.1443510" lon="1.5907920">
    <ele>941.6</ele>
   </trkpt>
   <trkpt lat="42.1444050" lon="1.5908660">
    <ele>940.8</ele>
   </trkpt>
   <trkpt lat="42.1445170" lon="1.5910160">
    <ele>940.0</ele>
   </trkpt>
   <trkpt lat="42.1445560" lon="1.5910870">
    <ele>939.8</ele>
   </trkpt>
   <trkpt lat="42.1445940" lon="1.5911550">
    <ele>939.6</ele>
   </trkpt>
   <trkpt lat="42.1446360" lon="1.5912550">
    <ele>939.0</ele>
   </trkpt>
   <trkpt lat="42.1446680" lon="1.5913250">
    <ele>938.8</ele>
   </trkpt>
   <trkpt lat="42.1447290" lon="1.5915190">
    <ele>938.8</ele>
   </trkpt>
   <trkpt lat="42.1448020" lon="1.5917420">
    <ele>938.6</ele>
   </trkpt>
   <trkpt lat="42.1448570" lon="1.5918830">
    <ele>938.6</ele>
   </trkpt>
   <trkpt lat="42.1448970" lon="1.5920200">
    <ele>939.2</ele>
   </trkpt>
   <trkpt lat="42.1449400" lon="1.5921250">
    <ele>939.8</ele>
   </trkpt>
   <trkpt lat="42.1450040" lon="1.5922560">
    <ele>940.4</ele>
   </trkpt>
   <trkpt lat="42.1450640" lon="1.5923530">
    <ele>941.0</ele>
   </trkpt>
   <trkpt lat="42.1451250" lon="1.5924600">
    <ele>941.6</ele>
   </trkpt>
   <trkpt lat="42.1452420" lon="1.5926290">
    <ele>942.2</ele>
   </trkpt>
   <trkpt lat="42.1453550" lon="1.5927510">
    <ele>942.8</ele>
   </trkpt>
   <trkpt lat="42.1454270" lon="1.5928860">
    <ele>942.8</ele>
   </trkpt>
   <trkpt lat="42.1454480" lon="1.5929390">
    <ele>942.2</ele>
   </trkpt>
   <trkpt lat="42.1455260" lon="1.5931290">
    <ele>941.0</ele>
   </trkpt>
   <trkpt lat="42.1454890" lon="1.5931960">
    <ele>940.6</ele>
   </trkpt>
   <trkpt lat="42.1454700" lon="1.5932220">
    <ele>940.0</ele>
   </trkpt>
   <trkpt lat="42.1454580" lon="1.5932480">
    <ele>939.6</ele>
   </trkpt>
   <trkpt lat="42.1454340" lon="1.5932950">
    <ele>938.6</ele>
   </trkpt>
   <trkpt lat="42.1454010" lon="1.5933420">
    <ele>937.4</ele>
   </trkpt>
   <trkpt lat="42.1453840" lon="1.5933670">
    <ele>937.0</ele>
   </trkpt>
   <trkpt lat="42.1453500" lon="1.5934240">
    <ele>936.4</ele>
   </trkpt>
   <trkpt lat="42.1452960" lon="1.5935100">
    <ele>935.0</ele>
   </trkpt>
   <trkpt lat="42.1452750" lon="1.5935350">
    <ele>934.0</ele>
   </trkpt>
   <trkpt lat="42.1452380" lon="1.5935850">
    <ele>932.4</ele>
   </trkpt>
   <trkpt lat="42.1451810" lon="1.5936670">
    <ele>931.2</ele>
   </trkpt>
   <trkpt lat="42.1451400" lon="1.5937200">
    <ele>929.8</ele>
   </trkpt>
   <trkpt lat="42.1451000" lon="1.5937730">
    <ele>928.6</ele>
   </trkpt>
   <trkpt lat="42.1450420" lon="1.5938570">
    <ele>927.0</ele>
   </trkpt>
   <trkpt lat="42.1450010" lon="1.5939100">
    <ele>925.6</ele>
   </trkpt>
   <trkpt lat="42.1449620" lon="1.5939550">
    <ele>924.6</ele>
   </trkpt>
   <trkpt lat="42.1449420" lon="1.5939810">
    <ele>924.2</ele>
   </trkpt>
   <trkpt lat="42.1449070" lon="1.5940360">
    <ele>923.2</ele>
   </trkpt>
   <trkpt lat="42.1448690" lon="1.5940940">
    <ele>922.2</ele>
   </trkpt>
   <trkpt lat="42.1448310" lon="1.5941490">
    <ele>921.4</ele>
   </trkpt>
   <trkpt lat="42.1448140" lon="1.5941770">
    <ele>921.0</ele>
   </trkpt>
   <trkpt lat="42.1447820" lon="1.5942310">
    <ele>920.0</ele>
   </trkpt>
   <trkpt lat="42.1447640" lon="1.5942630">
    <ele>919.6</ele>
   </trkpt>
   <trkpt lat="42.1447480" lon="1.5942940">
    <ele>919.4</ele>
   </trkpt>
   <trkpt lat="42.1447340" lon="1.5943200">
    <ele>919.2</ele>
   </trkpt>
   <trkpt lat="42.1447140" lon="1.5943550">
    <ele>918.4</ele>
   </trkpt>
   <trkpt lat="42.1446960" lon="1.5943840">
    <ele>918.0</ele>
   </trkpt>
   <trkpt lat="42.1446620" lon="1.5944420">
    <ele>917.2</ele>
   </trkpt>
   <trkpt lat="42.1446160" lon="1.5945360">
    <ele>916.2</ele>
   </trkpt>
   <trkpt lat="42.1446010" lon="1.5945640">
    <ele>916.0</ele>
   </trkpt>
   <trkpt lat="42.1445850" lon="1.5945910">
    <ele>915.8</ele>
   </trkpt>
   <trkpt lat="42.1445580" lon="1.5946490">
    <ele>915.0</ele>
   </trkpt>
   <trkpt lat="42.1445210" lon="1.5947260">
    <ele>914.2</ele>
   </trkpt>
   <trkpt lat="42.1445060" lon="1.5947570">
    <ele>913.8</ele>
   </trkpt>
   <trkpt lat="42.1444550" lon="1.5948950">
    <ele>912.8</ele>
   </trkpt>
   <trkpt lat="42.1444380" lon="1.5949600">
    <ele>912.2</ele>
   </trkpt>
   <trkpt lat="42.1444250" lon="1.5950270">
    <ele>911.6</ele>
   </trkpt>
   <trkpt lat="42.1444090" lon="1.5951890">
    <ele>910.6</ele>
   </trkpt>
   <trkpt lat="42.1444100" lon="1.5952360">
    <ele>910.2</ele>
   </trkpt>
   <trkpt lat="42.1444440" lon="1.5953940">
    <ele>909.2</ele>
   </trkpt>
   <trkpt lat="42.1444610" lon="1.5954650">
    <ele>908.6</ele>
   </trkpt>
   <trkpt lat="42.1444740" lon="1.5955680">
    <ele>908.0</ele>
   </trkpt>
   <trkpt lat="42.1444980" lon="1.5956700">
    <ele>907.2</ele>
   </trkpt>
   <trkpt lat="42.1445200" lon="1.5957430">
    <ele>907.0</ele>
   </trkpt>
   <trkpt lat="42.1445450" lon="1.5958090">
    <ele>905.6</ele>
   </trkpt>
   <trkpt lat="42.1445890" lon="1.5959190">
    <ele>904.8</ele>
   </trkpt>
   <trkpt lat="42.1445980" lon="1.5959570">
    <ele>904.6</ele>
   </trkpt>
   <trkpt lat="42.1446070" lon="1.5960620">
    <ele>903.0</ele>
   </trkpt>
   <trkpt lat="42.1446130" lon="1.5961290">
    <ele>902.4</ele>
   </trkpt>
   <trkpt lat="42.1446320" lon="1.5962150">
    <ele>901.8</ele>
   </trkpt>
   <trkpt lat="42.1446560" lon="1.5962500">
    <ele>901.0</ele>
   </trkpt>
   <trkpt lat="42.1446710" lon="1.5962620">
    <ele>900.6</ele>
   </trkpt>
   <trkpt lat="42.1447140" lon="1.5962820">
    <ele>899.6</ele>
   </trkpt>
   <trkpt lat="42.1447700" lon="1.5962860">
    <ele>899.2</ele>
   </trkpt>
   <trkpt lat="42.1448490" lon="1.5962990">
    <ele>898.4</ele>
   </trkpt>
   <trkpt lat="42.1449170" lon="1.5962990">
    <ele>897.8</ele>
   </trkpt>
   <trkpt lat="42.1450030" lon="1.5963080">
    <ele>897.4</ele>
   </trkpt>
   <trkpt lat="42.1451250" lon="1.5963200">
    <ele>896.4</ele>
   </trkpt>
   <trkpt lat="42.1451450" lon="1.5963240">
    <ele>896.4</ele>
   </trkpt>
   <trkpt lat="42.1452510" lon="1.5963290">
    <ele>895.8</ele>
   </trkpt>
   <trkpt lat="42.1453260" lon="1.5963480">
    <ele>895.2</ele>
   </trkpt>
   <trkpt lat="42.1453650" lon="1.5963790">
    <ele>895.2</ele>
   </trkpt>
   <trkpt lat="42.1455050" lon="1.5964470">
    <ele>894.4</ele>
   </trkpt>
   <trkpt lat="42.1456100" lon="1.5965300">
    <ele>894.4</ele>
   </trkpt>
   <trkpt lat="42.1456460" lon="1.5965610">
    <ele>893.8</ele>
   </trkpt>
   <trkpt lat="42.1457340" lon="1.5966460">
    <ele>892.8</ele>
   </trkpt>
   <trkpt lat="42.1457590" lon="1.5966690">
    <ele>892.6</ele>
   </trkpt>
   <trkpt lat="42.1458570" lon="1.5967260">
    <ele>892.2</ele>
   </trkpt>
   <trkpt lat="42.1459420" lon="1.5967390">
    <ele>891.6</ele>
   </trkpt>
   <trkpt lat="42.1460250" lon="1.5967460">
    <ele>890.4</ele>
   </trkpt>
   <trkpt lat="42.1461090" lon="1.5967770">
    <ele>889.8</ele>
   </trkpt>
   <trkpt lat="42.1461620" lon="1.5968210">
    <ele>889.4</ele>
   </trkpt>
   <trkpt lat="42.1462390" lon="1.5968820">
    <ele>888.6</ele>
   </trkpt>
   <trkpt lat="42.1463240" lon="1.5968970">
    <ele>888.4</ele>
   </trkpt>
   <trkpt lat="42.1463520" lon="1.5969120">
    <ele>888.0</ele>
   </trkpt>
   <trkpt lat="42.1464770" lon="1.5969440">
    <ele>887.6</ele>
   </trkpt>
   <trkpt lat="42.1465210" lon="1.5969520">
    <ele>887.4</ele>
   </trkpt>
   <trkpt lat="42.1467140" lon="1.5969990">
    <ele>887.4</ele>
   </trkpt>
   <trkpt lat="42.1468940" lon="1.5970230">
    <ele>886.8</ele>
   </trkpt>
   <trkpt lat="42.1469200" lon="1.5970000">
    <ele>886.6</ele>
   </trkpt>
   <trkpt lat="42.1469640" lon="1.5969800">
    <ele>886.4</ele>
   </trkpt>
   <trkpt lat="42.1471000" lon="1.5968980">
    <ele>886.2</ele>
   </trkpt>
   <trkpt lat="42.1472120" lon="1.5968530">
    <ele>886.0</ele>
   </trkpt>
   <trkpt lat="42.1473140" lon="1.5968310">
    <ele>886.4</ele>
   </trkpt>
   <trkpt lat="42.1474020" lon="1.5968470">
    <ele>886.4</ele>
   </trkpt>
   <trkpt lat="42.1474170" lon="1.5968490">
    <ele>886.4</ele>
   </trkpt>
   <trkpt lat="42.1474410" lon="1.5968370">
    <ele>886.4</ele>
   </trkpt>
   <trkpt lat="42.1474680" lon="1.5968260">
    <ele>886.4</ele>
   </trkpt>
   <trkpt lat="42.1475130" lon="1.5968350">
    <ele>886.0</ele>
   </trkpt>
   <trkpt lat="42.1475290" lon="1.5968370">
    <ele>885.6</ele>
   </trkpt>
   <trkpt lat="42.1475510" lon="1.5968400">
    <ele>885.6</ele>
   </trkpt>
   <trkpt lat="42.1475630" lon="1.5968390">
    <ele>885.4</ele>
   </trkpt>
   <trkpt lat="42.1476140" lon="1.5968270">
    <ele>885.2</ele>
   </trkpt>
   <trkpt lat="42.1477080" lon="1.5968320">
    <ele>884.6</ele>
   </trkpt>
   <trkpt lat="42.1478550" lon="1.5968290">
    <ele>884.0</ele>
   </trkpt>
   <trkpt lat="42.1480100" lon="1.5968260">
    <ele>884.4</ele>
   </trkpt>
   <trkpt lat="42.1481280" lon="1.5968710">
    <ele>884.8</ele>
   </trkpt>
   <trkpt lat="42.1481600" lon="1.5968990">
    <ele>884.8</ele>
   </trkpt>
   <trkpt lat="42.1482340" lon="1.5969390">
    <ele>885.0</ele>
   </trkpt>
   <trkpt lat="42.1482680" lon="1.5969430">
    <ele>885.2</ele>
   </trkpt>
   <trkpt lat="42.1484660" lon="1.5969760">
    <ele>885.4</ele>
   </trkpt>
   <trkpt lat="42.1486300" lon="1.5970390">
    <ele>884.6</ele>
   </trkpt>
   <trkpt lat="42.1487730" lon="1.5970700">
    <ele>884.4</ele>
   </trkpt>
   <trkpt lat="42.1489490" lon="1.5970890">
    <ele>884.2</ele>
   </trkpt>
   <trkpt lat="42.1490440" lon="1.5971280">
    <ele>883.4</ele>
   </trkpt>
   <trkpt lat="42.1490930" lon="1.5971420">
    <ele>883.0</ele>
   </trkpt>
   <trkpt lat="42.1491730" lon="1.5971440">
    <ele>882.4</ele>
   </trkpt>
   <trkpt lat="42.1492500" lon="1.5971380">
    <ele>881.8</ele>
   </trkpt>
   <trkpt lat="42.1493680" lon="1.5971630">
    <ele>881.4</ele>
   </trkpt>
   <trkpt lat="42.1493900" lon="1.5971670">
    <ele>881.2</ele>
   </trkpt>
   <trkpt lat="42.1494710" lon="1.5971890">
    <ele>881.2</ele>
   </trkpt>
   <trkpt lat="42.1495030" lon="1.5971910">
    <ele>881.2</ele>
   </trkpt>
   <trkpt lat="42.1495730" lon="1.5972000">
    <ele>881.2</ele>
   </trkpt>
   <trkpt lat="42.1496620" lon="1.5972350">
    <ele>881.4</ele>
   </trkpt>
   <trkpt lat="42.1496860" lon="1.5972480">
    <ele>881.6</ele>
   </trkpt>
   <trkpt lat="42.1498330" lon="1.5972980">
    <ele>882.0</ele>
   </trkpt>
   <trkpt lat="42.1498480" lon="1.5973070">
    <ele>882.4</ele>
   </trkpt>
   <trkpt lat="42.1498520" lon="1.5973140">
    <ele>882.8</ele>
   </trkpt>
   <trkpt lat="42.1498560" lon="1.5973310">
    <ele>882.8</ele>
   </trkpt>
   <trkpt lat="42.1498580" lon="1.5973380">
    <ele>883.4</ele>
   </trkpt>
   <trkpt lat="42.1499050" lon="1.5973530">
    <ele>883.6</ele>
   </trkpt>
   <trkpt lat="42.1499430" lon="1.5973680">
    <ele>883.8</ele>
   </trkpt>
   <trkpt lat="42.1501460" lon="1.5973450">
    <ele>884.0</ele>
   </trkpt>
   <trkpt lat="42.1501810" lon="1.5973450">
    <ele>884.2</ele>
   </trkpt>
   <trkpt lat="42.1502740" lon="1.5973280">
    <ele>884.4</ele>
   </trkpt>
   <trkpt lat="42.1502950" lon="1.5973260">
    <ele>884.6</ele>
   </trkpt>
   <trkpt lat="42.1503180" lon="1.5973350">
    <ele>884.6</ele>
   </trkpt>
   <trkpt lat="42.1503570" lon="1.5973370">
    <ele>884.6</ele>
   </trkpt>
   <trkpt lat="42.1505380" lon="1.5973460">
    <ele>884.8</ele>
   </trkpt>
   <trkpt lat="42.1506260" lon="1.5973490">
    <ele>884.8</ele>
   </trkpt>
   <trkpt lat="42.1506370" lon="1.5973530">
    <ele>884.8</ele>
   </trkpt>
   <trkpt lat="42.1506250" lon="1.5973350">
    <ele>884.6</ele>
   </trkpt>
   <trkpt lat="42.1506060" lon="1.5972960">
    <ele>884.6</ele>
   </trkpt>
   <trkpt lat="42.1506020" lon="1.5972710">
    <ele>884.8</ele>
   </trkpt>
   <trkpt lat="42.1505690" lon="1.5972340">
    <ele>884.8</ele>
   </trkpt>
   <trkpt lat="42.1505160" lon="1.5972280">
    <ele>884.6</ele>
   </trkpt>
   <trkpt lat="42.1503980" lon="1.5971950">
    <ele>884.0</ele>
   </trkpt>
   <trkpt lat="42.1503560" lon="1.5971720">
    <ele>883.6</ele>
   </trkpt>
   <trkpt lat="42.1503360" lon="1.5971700">
    <ele>883.4</ele>
   </trkpt>
   <trkpt lat="42.1502260" lon="1.5971580">
    <ele>883.4</ele>
   </trkpt>
   <trkpt lat="42.1500740" lon="1.5971290">
    <ele>882.2</ele>
   </trkpt>
   <trkpt lat="42.1499720" lon="1.5971190">
    <ele>881.8</ele>
   </trkpt>
   <trkpt lat="42.1498430" lon="1.5971100">
    <ele>881.4</ele>
   </trkpt>
   <trkpt lat="42.1497000" lon="1.5970760">
    <ele>881.2</ele>
   </trkpt>
   <trkpt lat="42.1495440" lon="1.5970920">
    <ele>881.2</ele>
   </trkpt>
   <trkpt lat="42.1494090" lon="1.5971060">
    <ele>881.2</ele>
   </trkpt>
   <trkpt lat="42.1493760" lon="1.5970890">
    <ele>881.4</ele>
   </trkpt>
   <trkpt lat="42.1492550" lon="1.5970840">
    <ele>882.2</ele>
   </trkpt>
   <trkpt lat="42.1492010" lon="1.5970900">
    <ele>882.4</ele>
   </trkpt>
   <trkpt lat="42.1490970" lon="1.5970510">
    <ele>883.2</ele>
   </trkpt>
   <trkpt lat="42.1490740" lon="1.5970470">
    <ele>883.4</ele>
   </trkpt>
   <trkpt lat="42.1490440" lon="1.5970520">
    <ele>883.6</ele>
   </trkpt>
   <trkpt lat="42.1488650" lon="1.5970070">
    <ele>883.8</ele>
   </trkpt>
   <trkpt lat="42.1487300" lon="1.5969160">
    <ele>884.2</ele>
   </trkpt>
   <trkpt lat="42.1485950" lon="1.5968460">
    <ele>884.8</ele>
   </trkpt>
   <trkpt lat="42.1485670" lon="1.5968310">
    <ele>885.0</ele>
   </trkpt>
   <trkpt lat="42.1485160" lon="1.5967970">
    <ele>884.6</ele>
   </trkpt>
   <trkpt lat="42.1484070" lon="1.5967890">
    <ele>884.4</ele>
   </trkpt>
   <trkpt lat="42.1482770" lon="1.5967580">
    <ele>884.0</ele>
   </trkpt>
   <trkpt lat="42.1482020" lon="1.5967540">
    <ele>883.6</ele>
   </trkpt>
   <trkpt lat="42.1481300" lon="1.5967150">
    <ele>883.4</ele>
   </trkpt>
   <trkpt lat="42.1479540" lon="1.5967290">
    <ele>883.4</ele>
   </trkpt>
   <trkpt lat="42.1477690" lon="1.5967630">
    <ele>884.4</ele>
   </trkpt>
   <trkpt lat="42.1477440" lon="1.5967630">
    <ele>884.4</ele>
   </trkpt>
   <trkpt lat="42.1476930" lon="1.5967800">
    <ele>885.0</ele>
   </trkpt>
   <trkpt lat="42.1475750" lon="1.5968030">
    <ele>885.6</ele>
   </trkpt>
   <trkpt lat="42.1473820" lon="1.5968790">
    <ele>885.4</ele>
   </trkpt>
   <trkpt lat="42.1472290" lon="1.5968960">
    <ele>885.2</ele>
   </trkpt>
   <trkpt lat="42.1471510" lon="1.5968720">
    <ele>885.4</ele>
   </trkpt>
   <trkpt lat="42.1470180" lon="1.5968670">
    <ele>885.6</ele>
   </trkpt>
   <trkpt lat="42.1468750" lon="1.5968310">
    <ele>886.0</ele>
   </trkpt>
   <trkpt lat="42.1468420" lon="1.5968450">
    <ele>886.2</ele>
   </trkpt>
   <trkpt lat="42.1467020" lon="1.5968630">
    <ele>886.6</ele>
   </trkpt>
   <trkpt lat="42.1465100" lon="1.5968190">
    <ele>887.0</ele>
   </trkpt>
   <trkpt lat="42.1464580" lon="1.5968010">
    <ele>887.2</ele>
   </trkpt>
   <trkpt lat="42.1463640" lon="1.5967740">
    <ele>888.2</ele>
   </trkpt>
   <trkpt lat="42.1463230" lon="1.5967580">
    <ele>888.4</ele>
   </trkpt>
   <trkpt lat="42.1462790" lon="1.5967510">
    <ele>889.0</ele>
   </trkpt>
   <trkpt lat="42.1462380" lon="1.5967360">
    <ele>889.4</ele>
   </trkpt>
   <trkpt lat="42.1462200" lon="1.5967270">
    <ele>889.8</ele>
   </trkpt>
   <trkpt lat="42.1461800" lon="1.5967160">
    <ele>890.2</ele>
   </trkpt>
   <trkpt lat="42.1461280" lon="1.5967050">
    <ele>890.6</ele>
   </trkpt>
   <trkpt lat="42.1461060" lon="1.5967080">
    <ele>891.2</ele>
   </trkpt>
   <trkpt lat="42.1460540" lon="1.5966920">
    <ele>891.0</ele>
   </trkpt>
   <trkpt lat="42.1459970" lon="1.5966570">
    <ele>891.6</ele>
   </trkpt>
   <trkpt lat="42.1459800" lon="1.5966580">
    <ele>891.6</ele>
   </trkpt>
   <trkpt lat="42.1458480" lon="1.5966190">
    <ele>892.0</ele>
   </trkpt>
   <trkpt lat="42.1458270" lon="1.5966080">
    <ele>892.2</ele>
   </trkpt>
   <trkpt lat="42.1457160" lon="1.5965680">
    <ele>892.8</ele>
   </trkpt>
   <trkpt lat="42.1455970" lon="1.5964950">
    <ele>893.4</ele>
   </trkpt>
   <trkpt lat="42.1455590" lon="1.5964630">
    <ele>893.6</ele>
   </trkpt>
   <trkpt lat="42.1454310" lon="1.5963860">
    <ele>893.8</ele>
   </trkpt>
   <trkpt lat="42.1452400" lon="1.5963020">
    <ele>894.2</ele>
   </trkpt>
   <trkpt lat="42.1451190" lon="1.5963130">
    <ele>894.6</ele>
   </trkpt>
   <trkpt lat="42.1449600" lon="1.5962690">
    <ele>895.4</ele>
   </trkpt>
   <trkpt lat="42.1449380" lon="1.5962640">
    <ele>895.4</ele>
   </trkpt>
   <trkpt lat="42.1449210" lon="1.5962630">
    <ele>895.4</ele>
   </trkpt>
   <trkpt lat="42.1448500" lon="1.5962500">
    <ele>895.4</ele>
   </trkpt>
   <trkpt lat="42.1447590" lon="1.5962320">
    <ele>895.2</ele>
   </trkpt>
   <trkpt lat="42.1447210" lon="1.5962230">
    <ele>895.8</ele>
   </trkpt>
   <trkpt lat="42.1447030" lon="1.5962180">
    <ele>895.8</ele>
   </trkpt>
   <trkpt lat="42.1446910" lon="1.5962210">
    <ele>896.0</ele>
   </trkpt>
   <trkpt lat="42.1446730" lon="1.5962630">
    <ele>896.0</ele>
   </trkpt>
   <trkpt lat="42.1446430" lon="1.5964850">
    <ele>895.0</ele>
   </trkpt>
   <trkpt lat="42.1446400" lon="1.5965370">
    <ele>894.6</ele>
   </trkpt>
   <trkpt lat="42.1446400" lon="1.5966350">
    <ele>893.6</ele>
   </trkpt>
   <trkpt lat="42.1446360" lon="1.5968080">
    <ele>892.4</ele>
   </trkpt>
   <trkpt lat="42.1446280" lon="1.5968440">
    <ele>892.2</ele>
   </trkpt>
   <trkpt lat="42.1446110" lon="1.5969220">
    <ele>891.6</ele>
   </trkpt>
   <trkpt lat="42.1445980" lon="1.5969530">
    <ele>891.2</ele>
   </trkpt>
   <trkpt lat="42.1445540" lon="1.5970010">
    <ele>890.8</ele>
   </trkpt>
   <trkpt lat="42.1445240" lon="1.5970090">
    <ele>890.6</ele>
   </trkpt>
   <trkpt lat="42.1444960" lon="1.5970090">
    <ele>890.0</ele>
   </trkpt>
   <trkpt lat="42.1444390" lon="1.5970080">
    <ele>889.6</ele>
   </trkpt>
   <trkpt lat="42.1443920" lon="1.5969950">
    <ele>889.0</ele>
   </trkpt>
   <trkpt lat="42.1443330" lon="1.5969920">
    <ele>888.8</ele>
   </trkpt>
   <trkpt lat="42.1443150" lon="1.5969890">
    <ele>888.4</ele>
   </trkpt>
   <trkpt lat="42.1442960" lon="1.5969990">
    <ele>888.0</ele>
   </trkpt>
   <trkpt lat="42.1442090" lon="1.5970250">
    <ele>887.4</ele>
   </trkpt>
   <trkpt lat="42.1441410" lon="1.5970410">
    <ele>886.8</ele>
   </trkpt>
   <trkpt lat="42.1440760" lon="1.5970360">
    <ele>886.2</ele>
   </trkpt>
   <trkpt lat="42.1440460" lon="1.5970390">
    <ele>885.6</ele>
   </trkpt>
   <trkpt lat="42.1439520" lon="1.5970370">
    <ele>884.6</ele>
   </trkpt>
   <trkpt lat="42.1439320" lon="1.5970400">
    <ele>884.2</ele>
   </trkpt>
   <trkpt lat="42.1437740" lon="1.5971850">
    <ele>883.4</ele>
   </trkpt>
   <trkpt lat="42.1437540" lon="1.5972050">
    <ele>883.4</ele>
   </trkpt>
   <trkpt lat="42.1437080" lon="1.5972590">
    <ele>882.8</ele>
   </trkpt>
   <trkpt lat="42.1436160" lon="1.5973650">
    <ele>881.8</ele>
   </trkpt>
   <trkpt lat="42.1434790" lon="1.5974710">
    <ele>881.2</ele>
   </trkpt>
   <trkpt lat="42.1434490" lon="1.5975000">
    <ele>880.6</ele>
   </trkpt>
   <trkpt lat="42.1433180" lon="1.5976070">
    <ele>880.0</ele>
   </trkpt>
   <trkpt lat="42.1432650" lon="1.5976340">
    <ele>880.0</ele>
   </trkpt>
   <trkpt lat="42.1431930" lon="1.5976730">
    <ele>879.8</ele>
   </trkpt>
   <trkpt lat="42.1431640" lon="1.5976880">
    <ele>879.6</ele>
   </trkpt>
   <trkpt lat="42.1430280" lon="1.5977600">
    <ele>879.4</ele>
   </trkpt>
   <trkpt lat="42.1429990" lon="1.5977610">
    <ele>879.2</ele>
   </trkpt>
   <trkpt lat="42.1429460" lon="1.5977920">
    <ele>878.6</ele>
   </trkpt>
   <trkpt lat="42.1428640" lon="1.5978520">
    <ele>878.0</ele>
   </trkpt>
   <trkpt lat="42.1427880" lon="1.5979370">
    <ele>878.0</ele>
   </trkpt>
   <trkpt lat="42.1427130" lon="1.5980590">
    <ele>877.2</ele>
   </trkpt>
   <trkpt lat="42.1426670" lon="1.5981200">
    <ele>876.2</ele>
   </trkpt>
   <trkpt lat="42.1425510" lon="1.5982980">
    <ele>874.8</ele>
   </trkpt>
   <trkpt lat="42.1424950" lon="1.5984230">
    <ele>873.8</ele>
   </trkpt>
   <trkpt lat="42.1424580" lon="1.5985020">
    <ele>872.6</ele>
   </trkpt>
   <trkpt lat="42.1424200" lon="1.5985640">
    <ele>871.4</ele>
   </trkpt>
   <trkpt lat="42.1423760" lon="1.5986450">
    <ele>870.2</ele>
   </trkpt>
   <trkpt lat="42.1423590" lon="1.5986670">
    <ele>869.6</ele>
   </trkpt>
   <trkpt lat="42.1423020" lon="1.5987420">
    <ele>868.8</ele>
   </trkpt>
   <trkpt lat="42.1422650" lon="1.5987940">
    <ele>867.8</ele>
   </trkpt>
   <trkpt lat="42.1422340" lon="1.5988600">
    <ele>866.6</ele>
   </trkpt>
   <trkpt lat="42.1422190" lon="1.5988910">
    <ele>866.0</ele>
   </trkpt>
   <trkpt lat="42.1422070" lon="1.5989200">
    <ele>865.4</ele>
   </trkpt>
   <trkpt lat="42.1421630" lon="1.5989790">
    <ele>864.4</ele>
   </trkpt>
   <trkpt lat="42.1420730" lon="1.5990530">
    <ele>863.2</ele>
   </trkpt>
   <trkpt lat="42.1420090" lon="1.5990490">
    <ele>862.0</ele>
   </trkpt>
   <trkpt lat="42.1419530" lon="1.5990170">
    <ele>861.2</ele>
   </trkpt>
   <trkpt lat="42.1419130" lon="1.5989740">
    <ele>860.8</ele>
   </trkpt>
   <trkpt lat="42.1418900" lon="1.5989300">
    <ele>860.6</ele>
   </trkpt>
   <trkpt lat="42.1418870" lon="1.5989030">
    <ele>860.4</ele>
   </trkpt>
   <trkpt lat="42.1418860" lon="1.5988070">
    <ele>860.4</ele>
   </trkpt>
   <trkpt lat="42.1418430" lon="1.5985880">
    <ele>859.8</ele>
   </trkpt>
   <trkpt lat="42.1418220" lon="1.5985680">
    <ele>859.6</ele>
   </trkpt>
   <trkpt lat="42.1417040" lon="1.5984990">
    <ele>858.4</ele>
   </trkpt>
   <trkpt lat="42.1416220" lon="1.5984770">
    <ele>857.8</ele>
   </trkpt>
   <trkpt lat="42.1416000" lon="1.5984990">
    <ele>857.8</ele>
   </trkpt>
   <trkpt lat="42.1415550" lon="1.5985810">
    <ele>856.8</ele>
   </trkpt>
   <trkpt lat="42.1415270" lon="1.5986520">
    <ele>856.0</ele>
   </trkpt>
   <trkpt lat="42.1415070" lon="1.5987230">
    <ele>855.6</ele>
   </trkpt>
   <trkpt lat="42.1414800" lon="1.5988370">
    <ele>855.4</ele>
   </trkpt>
   <trkpt lat="42.1414650" lon="1.5989630">
    <ele>854.4</ele>
   </trkpt>
   <trkpt lat="42.1414470" lon="1.5990480">
    <ele>854.0</ele>
   </trkpt>
   <trkpt lat="42.1414170" lon="1.5992620">
    <ele>853.4</ele>
   </trkpt>
   <trkpt lat="42.1414400" lon="1.5994100">
    <ele>853.4</ele>
   </trkpt>
   <trkpt lat="42.1414420" lon="1.5994460">
    <ele>853.4</ele>
   </trkpt>
   <trkpt lat="42.1415100" lon="1.5995560">
    <ele>853.0</ele>
   </trkpt>
   <trkpt lat="42.1415570" lon="1.5996440">
    <ele>852.8</ele>
   </trkpt>
   <trkpt lat="42.1415800" lon="1.5996710">
    <ele>852.6</ele>
   </trkpt>
   <trkpt lat="42.1416800" lon="1.5997630">
    <ele>852.4</ele>
   </trkpt>
   <trkpt lat="42.1417240" lon="1.5998000">
    <ele>852.2</ele>
   </trkpt>
   <trkpt lat="42.1417410" lon="1.5998390">
    <ele>852.0</ele>
   </trkpt>
   <trkpt lat="42.1417450" lon="1.5998710">
    <ele>851.8</ele>
   </trkpt>
   <trkpt lat="42.1417050" lon="1.5999130">
    <ele>851.2</ele>
   </trkpt>
   <trkpt lat="42.1416890" lon="1.5999290">
    <ele>851.0</ele>
   </trkpt>
   <trkpt lat="42.1415880" lon="1.5999870">
    <ele>850.2</ele>
   </trkpt>
   <trkpt lat="42.1415440" lon="1.5999990">
    <ele>850.0</ele>
   </trkpt>
   <trkpt lat="42.1415100" lon="1.6000050">
    <ele>849.8</ele>
   </trkpt>
   <trkpt lat="42.1414910" lon="1.6000100">
    <ele>849.8</ele>
   </trkpt>
   <trkpt lat="42.1413660" lon="1.5999990">
    <ele>849.6</ele>
   </trkpt>
   <trkpt lat="42.1413370" lon="1.5999840">
    <ele>849.6</ele>
   </trkpt>
   <trkpt lat="42.1413100" lon="1.5999630">
    <ele>849.4</ele>
   </trkpt>
   <trkpt lat="42.1412140" lon="1.5998820">
    <ele>849.6</ele>
   </trkpt>
   <trkpt lat="42.1410760" lon="1.5999070">
    <ele>849.4</ele>
   </trkpt>
   <trkpt lat="42.1409260" lon="1.5998350">
    <ele>849.2</ele>
   </trkpt>
   <trkpt lat="42.1407520" lon="1.5997700">
    <ele>848.8</ele>
   </trkpt>
   <trkpt lat="42.1406310" lon="1.5997380">
    <ele>848.0</ele>
   </trkpt>
   <trkpt lat="42.1406120" lon="1.5997240">
    <ele>847.8</ele>
   </trkpt>
   <trkpt lat="42.1404830" lon="1.5996210">
    <ele>847.0</ele>
   </trkpt>
   <trkpt lat="42.1404390" lon="1.5995650">
    <ele>846.8</ele>
   </trkpt>
   <trkpt lat="42.1403840" lon="1.5994560">
    <ele>846.6</ele>
   </trkpt>
   <trkpt lat="42.1403240" lon="1.5993280">
    <ele>846.4</ele>
   </trkpt>
   <trkpt lat="42.1403050" lon="1.5992620">
    <ele>846.4</ele>
   </trkpt>
   <trkpt lat="42.1402190" lon="1.5990590">
    <ele>846.2</ele>
   </trkpt>
   <trkpt lat="42.1401020" lon="1.5988760">
    <ele>846.0</ele>
   </trkpt>
   <trkpt lat="42.1399690" lon="1.5987090">
    <ele>846.0</ele>
   </trkpt>
   <trkpt lat="42.1399170" lon="1.5986640">
    <ele>845.6</ele>
   </trkpt>
   <trkpt lat="42.1398410" lon="1.5985850">
    <ele>845.4</ele>
   </trkpt>
   <trkpt lat="42.1396880" lon="1.5984990">
    <ele>845.4</ele>
   </trkpt>
   <trkpt lat="42.1395300" lon="1.5984730">
    <ele>845.4</ele>
   </trkpt>
   <trkpt lat="42.1393900" lon="1.5985020">
    <ele>845.0</ele>
   </trkpt>
   <trkpt lat="42.1392440" lon="1.5986600">
    <ele>845.0</ele>
   </trkpt>
   <trkpt lat="42.1392100" lon="1.5986830">
    <ele>844.6</ele>
   </trkpt>
   <trkpt lat="42.1390990" lon="1.5988760">
    <ele>844.6</ele>
   </trkpt>
   <trkpt lat="42.1389860" lon="1.5990220">
    <ele>844.6</ele>
   </trkpt>
   <trkpt lat="42.1389540" lon="1.5990670">
    <ele>844.8</ele>
   </trkpt>
   <trkpt lat="42.1388910" lon="1.5991460">
    <ele>844.6</ele>
   </trkpt>
   <trkpt lat="42.1388580" lon="1.5991840">
    <ele>844.4</ele>
   </trkpt>
   <trkpt lat="42.1387670" lon="1.5992900">
    <ele>844.6</ele>
   </trkpt>
   <trkpt lat="42.1386770" lon="1.5993850">
    <ele>846.0</ele>
   </trkpt>
   <trkpt lat="42.1386400" lon="1.5994140">
    <ele>846.4</ele>
   </trkpt>
   <trkpt lat="42.1385650" lon="1.5994590">
    <ele>847.0</ele>
   </trkpt>
   <trkpt lat="42.1384750" lon="1.5994960">
    <ele>847.8</ele>
   </trkpt>
   <trkpt lat="42.1384000" lon="1.5994910">
    <ele>848.2</ele>
   </trkpt>
   <trkpt lat="42.1383230" lon="1.5994830">
    <ele>849.2</ele>
   </trkpt>
   <trkpt lat="42.1382980" lon="1.5994820">
    <ele>849.4</ele>
   </trkpt>
   <trkpt lat="42.1381720" lon="1.5994790">
    <ele>850.4</ele>
   </trkpt>
   <trkpt lat="42.1381210" lon="1.5994910">
    <ele>851.0</ele>
   </trkpt>
   <trkpt lat="42.1380750" lon="1.5994650">
    <ele>851.6</ele>
   </trkpt>
   <trkpt lat="42.1380190" lon="1.5994590">
    <ele>851.8</ele>
   </trkpt>
   <trkpt lat="42.1379540" lon="1.5994600">
    <ele>852.8</ele>
   </trkpt>
   <trkpt lat="42.1379380" lon="1.5994550">
    <ele>853.0</ele>
   </trkpt>
   <trkpt lat="42.1378370" lon="1.5994720">
    <ele>853.2</ele>
   </trkpt>
   <trkpt lat="42.1377050" lon="1.5995450">
    <ele>853.4</ele>
   </trkpt>
   <trkpt lat="42.1376300" lon="1.5995860">
    <ele>853.2</ele>
   </trkpt>
   <trkpt lat="42.1375480" lon="1.5996150">
    <ele>853.4</ele>
   </trkpt>
   <trkpt lat="42.1373680" lon="1.5997170">
    <ele>853.4</ele>
   </trkpt>
   <trkpt lat="42.1373380" lon="1.5997350">
    <ele>853.6</ele>
   </trkpt>
   <trkpt lat="42.1373080" lon="1.5997490">
    <ele>853.8</ele>
   </trkpt>
   <trkpt lat="42.1371550" lon="1.5997950">
    <ele>853.4</ele>
   </trkpt>
   <trkpt lat="42.1370460" lon="1.5997850">
    <ele>853.2</ele>
   </trkpt>
   <trkpt lat="42.1369590" lon="1.5997690">
    <ele>853.2</ele>
   </trkpt>
   <trkpt lat="42.1367980" lon="1.5997860">
    <ele>853.8</ele>
   </trkpt>
   <trkpt lat="42.1366610" lon="1.5998660">
    <ele>853.8</ele>
   </trkpt>
   <trkpt lat="42.1366390" lon="1.5998760">
    <ele>853.8</ele>
   </trkpt>
   <trkpt lat="42.1364920" lon="1.5999440">
    <ele>853.6</ele>
   </trkpt>
   <trkpt lat="42.1364010" lon="1.6000100">
    <ele>853.4</ele>
   </trkpt>
   <trkpt lat="42.1363350" lon="1.6001310">
    <ele>853.6</ele>
   </trkpt>
   <trkpt lat="42.1362730" lon="1.6003040">
    <ele>853.6</ele>
   </trkpt>
   <trkpt lat="42.1361890" lon="1.6005030">
    <ele>853.8</ele>
   </trkpt>
   <trkpt lat="42.1360880" lon="1.6006720">
    <ele>853.8</ele>
   </trkpt>
   <trkpt lat="42.1359260" lon="1.6008330">
    <ele>853.6</ele>
   </trkpt>
   <trkpt lat="42.1359020" lon="1.6008530">
    <ele>853.8</ele>
   </trkpt>
   <trkpt lat="42.1357440" lon="1.6009960">
    <ele>853.4</ele>
   </trkpt>
   <trkpt lat="42.1355670" lon="1.6011220">
    <ele>853.4</ele>
   </trkpt>
   <trkpt lat="42.1355440" lon="1.6011290">
    <ele>853.4</ele>
   </trkpt>
   <trkpt lat="42.1353990" lon="1.6012410">
    <ele>854.0</ele>
   </trkpt>
   <trkpt lat="42.1352640" lon="1.6014070">
    <ele>854.4</ele>
   </trkpt>
   <trkpt lat="42.1352290" lon="1.6014560">
    <ele>855.0</ele>
   </trkpt>
   <trkpt lat="42.1351450" lon="1.6015510">
    <ele>855.2</ele>
   </trkpt>
   <trkpt lat="42.1350250" lon="1.6017020">
    <ele>856.2</ele>
   </trkpt>
   <trkpt lat="42.1350110" lon="1.6017230">
    <ele>856.2</ele>
   </trkpt>
   <trkpt lat="42.1349810" lon="1.6017580">
    <ele>856.6</ele>
   </trkpt>
   <trkpt lat="42.1349300" lon="1.6018240">
    <ele>857.0</ele>
   </trkpt>
   <trkpt lat="42.1349110" lon="1.6018490">
    <ele>857.2</ele>
   </trkpt>
   <trkpt lat="42.1348920" lon="1.6018740">
    <ele>857.4</ele>
   </trkpt>
   <trkpt lat="42.1347680" lon="1.6020550">
    <ele>858.0</ele>
   </trkpt>
   <trkpt lat="42.1347540" lon="1.6020790">
    <ele>858.2</ele>
   </trkpt>
   <trkpt lat="42.1346500" lon="1.6022200">
    <ele>859.2</ele>
   </trkpt>
   <trkpt lat="42.1346000" lon="1.6022820">
    <ele>859.4</ele>
   </trkpt>
   <trkpt lat="42.1345330" lon="1.6023450">
    <ele>859.8</ele>
   </trkpt>
   <trkpt lat="42.1344250" lon="1.6024800">
    <ele>860.4</ele>
   </trkpt>
   <trkpt lat="42.1344060" lon="1.6024970">
    <ele>860.6</ele>
   </trkpt>
   <trkpt lat="42.1342630" lon="1.6025880">
    <ele>861.4</ele>
   </trkpt>
   <trkpt lat="42.1342080" lon="1.6025980">
    <ele>861.8</ele>
   </trkpt>
   <trkpt lat="42.1340750" lon="1.6026030">
    <ele>862.8</ele>
   </trkpt>
   <trkpt lat="42.1340140" lon="1.6026120">
    <ele>862.8</ele>
   </trkpt>
   <trkpt lat="42.1338630" lon="1.6025290">
    <ele>863.2</ele>
   </trkpt>
   <trkpt lat="42.1338440" lon="1.6025110">
    <ele>863.8</ele>
   </trkpt>
   <trkpt lat="42.1337620" lon="1.6023720">
    <ele>864.4</ele>
   </trkpt>
   <trkpt lat="42.1337250" lon="1.6022940">
    <ele>864.8</ele>
   </trkpt>
   <trkpt lat="42.1336970" lon="1.6022030">
    <ele>865.2</ele>
   </trkpt>
   <trkpt lat="42.1336770" lon="1.6021180">
    <ele>866.2</ele>
   </trkpt>
   <trkpt lat="42.1336700" lon="1.6020070">
    <ele>867.0</ele>
   </trkpt>
   <trkpt lat="42.1336660" lon="1.6019490">
    <ele>867.2</ele>
   </trkpt>
   <trkpt lat="42.1336690" lon="1.6017880">
    <ele>868.4</ele>
   </trkpt>
   <trkpt lat="42.1336820" lon="1.6016670">
    <ele>869.0</ele>
   </trkpt>
   <trkpt lat="42.1336930" lon="1.6015960">
    <ele>869.2</ele>
   </trkpt>
   <trkpt lat="42.1336990" lon="1.6015640">
    <ele>869.2</ele>
   </trkpt>
   <trkpt lat="42.1337030" lon="1.6015330">
    <ele>869.4</ele>
   </trkpt>
   <trkpt lat="42.1337200" lon="1.6014010">
    <ele>870.6</ele>
   </trkpt>
   <trkpt lat="42.1337250" lon="1.6013720">
    <ele>870.8</ele>
   </trkpt>
   <trkpt lat="42.1337530" lon="1.6012090">
    <ele>871.6</ele>
   </trkpt>
   <trkpt lat="42.1337630" lon="1.6011620">
    <ele>871.6</ele>
   </trkpt>
   <trkpt lat="42.1338050" lon="1.6010300">
    <ele>871.8</ele>
   </trkpt>
   <trkpt lat="42.1338330" lon="1.6009080">
    <ele>872.6</ele>
   </trkpt>
   <trkpt lat="42.1338650" lon="1.6007250">
    <ele>873.0</ele>
   </trkpt>
   <trkpt lat="42.1338710" lon="1.6006490">
    <ele>873.2</ele>
   </trkpt>
   <trkpt lat="42.1339030" lon="1.6004520">
    <ele>873.4</ele>
   </trkpt>
   <trkpt lat="42.1339240" lon="1.6002530">
    <ele>873.6</ele>
   </trkpt>
   <trkpt lat="42.1339260" lon="1.6001980">
    <ele>873.6</ele>
   </trkpt>
   <trkpt lat="42.1339330" lon="1.5999980">
    <ele>874.0</ele>
   </trkpt>
   <trkpt lat="42.1339350" lon="1.5999680">
    <ele>874.0</ele>
   </trkpt>
   <trkpt lat="42.1339570" lon="1.5997710">
    <ele>874.0</ele>
   </trkpt>
   <trkpt lat="42.1339740" lon="1.5995110">
    <ele>874.2</ele>
   </trkpt>
   <trkpt lat="42.1339800" lon="1.5992730">
    <ele>874.4</ele>
   </trkpt>
   <trkpt lat="42.1339890" lon="1.5991530">
    <ele>874.6</ele>
   </trkpt>
   <trkpt lat="42.1340010" lon="1.5990880">
    <ele>875.2</ele>
   </trkpt>
   <trkpt lat="42.1339930" lon="1.5989230">
    <ele>875.4</ele>
   </trkpt>
   <trkpt lat="42.1339680" lon="1.5987980">
    <ele>876.2</ele>
   </trkpt>
   <trkpt lat="42.1339410" lon="1.5987090">
    <ele>876.8</ele>
   </trkpt>
   <trkpt lat="42.1338770" lon="1.5986190">
    <ele>877.2</ele>
   </trkpt>
   <trkpt lat="42.1338050" lon="1.5985620">
    <ele>877.6</ele>
   </trkpt>
   <trkpt lat="42.1337570" lon="1.5985300">
    <ele>878.2</ele>
   </trkpt>
   <trkpt lat="42.1336840" lon="1.5985090">
    <ele>878.6</ele>
   </trkpt>
   <trkpt lat="42.1336010" lon="1.5985260">
    <ele>879.4</ele>
   </trkpt>
   <trkpt lat="42.1335340" lon="1.5985530">
    <ele>880.2</ele>
   </trkpt>
   <trkpt lat="42.1335140" lon="1.5985660">
    <ele>880.4</ele>
   </trkpt>
   <trkpt lat="42.1334570" lon="1.5986620">
    <ele>881.2</ele>
   </trkpt>
   <trkpt lat="42.1334410" lon="1.5987020">
    <ele>881.6</ele>
   </trkpt>
   <trkpt lat="42.1334120" lon="1.5987900">
    <ele>882.6</ele>
   </trkpt>
   <trkpt lat="42.1334020" lon="1.5988240">
    <ele>883.2</ele>
   </trkpt>
   <trkpt lat="42.1333470" lon="1.5989560">
    <ele>883.8</ele>
   </trkpt>
   <trkpt lat="42.1333330" lon="1.5989750">
    <ele>884.0</ele>
   </trkpt>
   <trkpt lat="42.1332080" lon="1.5990810">
    <ele>884.8</ele>
   </trkpt>
   <trkpt lat="42.1331870" lon="1.5990980">
    <ele>885.0</ele>
   </trkpt>
   <trkpt lat="42.1330760" lon="1.5991980">
    <ele>886.0</ele>
   </trkpt>
   <trkpt lat="42.1329820" lon="1.5992910">
    <ele>886.8</ele>
   </trkpt>
   <trkpt lat="42.1329600" lon="1.5993180">
    <ele>887.2</ele>
   </trkpt>
   <trkpt lat="42.1328160" lon="1.5994720">
    <ele>888.0</ele>
   </trkpt>
   <trkpt lat="42.1327410" lon="1.5995350">
    <ele>888.2</ele>
   </trkpt>
   <trkpt lat="42.1326590" lon="1.5996120">
    <ele>888.4</ele>
   </trkpt>
   <trkpt lat="42.1325050" lon="1.5997550">
    <ele>888.8</ele>
   </trkpt>
   <trkpt lat="42.1324870" lon="1.5997730">
    <ele>889.0</ele>
   </trkpt>
   <trkpt lat="42.1323880" lon="1.5999210">
    <ele>888.8</ele>
   </trkpt>
   <trkpt lat="42.1323610" lon="1.6000530">
    <ele>888.0</ele>
   </trkpt>
   <trkpt lat="42.1323510" lon="1.6002080">
    <ele>887.4</ele>
   </trkpt>
   <trkpt lat="42.1323470" lon="1.6002880">
    <ele>887.0</ele>
   </trkpt>
   <trkpt lat="42.1322990" lon="1.6004110">
    <ele>886.8</ele>
   </trkpt>
   <trkpt lat="42.1322030" lon="1.6005960">
    <ele>886.4</ele>
   </trkpt>
   <trkpt lat="42.1321490" lon="1.6006900">
    <ele>886.8</ele>
   </trkpt>
   <trkpt lat="42.1321220" lon="1.6007330">
    <ele>887.4</ele>
   </trkpt>
   <trkpt lat="42.1320870" lon="1.6007880">
    <ele>887.8</ele>
   </trkpt>
   <trkpt lat="42.1320180" lon="1.6009060">
    <ele>887.6</ele>
   </trkpt>
   <trkpt lat="42.1319890" lon="1.6009680">
    <ele>887.4</ele>
   </trkpt>
   <trkpt lat="42.1319760" lon="1.6010030">
    <ele>887.4</ele>
   </trkpt>
   <trkpt lat="42.1319190" lon="1.6011150">
    <ele>887.2</ele>
   </trkpt>
   <trkpt lat="42.1318350" lon="1.6013430">
    <ele>886.8</ele>
   </trkpt>
   <trkpt lat="42.1317830" lon="1.6014850">
    <ele>886.4</ele>
   </trkpt>
   <trkpt lat="42.1317600" lon="1.6015290">
    <ele>886.0</ele>
   </trkpt>
   <trkpt lat="42.1317200" lon="1.6016140">
    <ele>885.0</ele>
   </trkpt>
   <trkpt lat="42.1316560" lon="1.6017680">
    <ele>883.8</ele>
   </trkpt>
   <trkpt lat="42.1316520" lon="1.6018090">
    <ele>883.8</ele>
   </trkpt>
   <trkpt lat="42.1316230" lon="1.6019220">
    <ele>883.6</ele>
   </trkpt>
   <trkpt lat="42.1315700" lon="1.6021480">
    <ele>883.0</ele>
   </trkpt>
   <trkpt lat="42.1315580" lon="1.6021940">
    <ele>882.6</ele>
   </trkpt>
   <trkpt lat="42.1314960" lon="1.6023780">
    <ele>881.8</ele>
   </trkpt>
   <trkpt lat="42.1314600" lon="1.6024820">
    <ele>881.4</ele>
   </trkpt>
   <trkpt lat="42.1314450" lon="1.6025160">
    <ele>881.4</ele>
   </trkpt>
   <trkpt lat="42.1313760" lon="1.6026300">
    <ele>880.8</ele>
   </trkpt>
   <trkpt lat="42.1313170" lon="1.6027100">
    <ele>880.4</ele>
   </trkpt>
   <trkpt lat="42.1312610" lon="1.6027910">
    <ele>879.4</ele>
   </trkpt>
   <trkpt lat="42.1312320" lon="1.6028440">
    <ele>878.8</ele>
   </trkpt>
   <trkpt lat="42.1311970" lon="1.6028970">
    <ele>878.2</ele>
   </trkpt>
   <trkpt lat="42.1311850" lon="1.6029200">
    <ele>878.2</ele>
   </trkpt>
   <trkpt lat="42.1311690" lon="1.6029530">
    <ele>878.0</ele>
   </trkpt>
   <trkpt lat="42.1311730" lon="1.6029810">
    <ele>877.8</ele>
   </trkpt>
   <trkpt lat="42.1311460" lon="1.6030600">
    <ele>877.2</ele>
   </trkpt>
   <trkpt lat="42.1311330" lon="1.6030920">
    <ele>876.6</ele>
   </trkpt>
   <trkpt lat="42.1311080" lon="1.6031470">
    <ele>876.2</ele>
   </trkpt>
   <trkpt lat="42.1310610" lon="1.6032340">
    <ele>875.0</ele>
   </trkpt>
   <trkpt lat="42.1310430" lon="1.6032590">
    <ele>874.8</ele>
   </trkpt>
   <trkpt lat="42.1309660" lon="1.6033430">
    <ele>873.8</ele>
   </trkpt>
   <trkpt lat="42.1309280" lon="1.6033810">
    <ele>873.4</ele>
   </trkpt>
   <trkpt lat="42.1308590" lon="1.6034240">
    <ele>872.8</ele>
   </trkpt>
   <trkpt lat="42.1307700" lon="1.6034800">
    <ele>871.8</ele>
   </trkpt>
   <trkpt lat="42.1307510" lon="1.6034910">
    <ele>871.8</ele>
   </trkpt>
   <trkpt lat="42.1306990" lon="1.6035590">
    <ele>871.2</ele>
   </trkpt>
   <trkpt lat="42.1306590" lon="1.6036170">
    <ele>871.2</ele>
   </trkpt>
   <trkpt lat="42.1306130" lon="1.6036850">
    <ele>871.0</ele>
   </trkpt>
   <trkpt lat="42.1305490" lon="1.6037690">
    <ele>871.0</ele>
   </trkpt>
   <trkpt lat="42.1305300" lon="1.6037900">
    <ele>870.6</ele>
   </trkpt>
   <trkpt lat="42.1305120" lon="1.6038060">
    <ele>870.4</ele>
   </trkpt>
   <trkpt lat="42.1304790" lon="1.6038480">
    <ele>869.6</ele>
   </trkpt>
   <trkpt lat="42.1304620" lon="1.6038660">
    <ele>869.6</ele>
   </trkpt>
   <trkpt lat="42.1304230" lon="1.6038980">
    <ele>869.2</ele>
   </trkpt>
   <trkpt lat="42.1303970" lon="1.6039000">
    <ele>869.2</ele>
   </trkpt>
   <trkpt lat="42.1302890" lon="1.6039490">
    <ele>869.2</ele>
   </trkpt>
   <trkpt lat="42.1302720" lon="1.6039640">
    <ele>869.4</ele>
   </trkpt>
   <trkpt lat="42.1302500" lon="1.6039800">
    <ele>869.6</ele>
   </trkpt>
   <trkpt lat="42.1302300" lon="1.6039810">
    <ele>869.8</ele>
   </trkpt>
   <trkpt lat="42.1302250" lon="1.6039770">
    <ele>870.2</ele>
   </trkpt>
   <trkpt lat="42.1302260" lon="1.6039620">
    <ele>870.6</ele>
   </trkpt>
   <trkpt lat="42.1302330" lon="1.6039560">
    <ele>870.8</ele>
   </trkpt>
   <trkpt lat="42.1302590" lon="1.6039180">
    <ele>872.0</ele>
   </trkpt>
   <trkpt lat="42.1302780" lon="1.6038930">
    <ele>873.2</ele>
   </trkpt>
   <trkpt lat="42.1302880" lon="1.6038760">
    <ele>874.0</ele>
   </trkpt>
   <trkpt lat="42.1302920" lon="1.6038650">
    <ele>874.2</ele>
   </trkpt>
   <trkpt lat="42.1302960" lon="1.6038590">
    <ele>874.6</ele>
   </trkpt>
   <trkpt lat="42.1303040" lon="1.6038460">
    <ele>875.0</ele>
   </trkpt>
   <trkpt lat="42.1303130" lon="1.6038350">
    <ele>875.4</ele>
   </trkpt>
   <trkpt lat="42.1303280" lon="1.6037990">
    <ele>876.6</ele>
   </trkpt>
   <trkpt lat="42.1303320" lon="1.6037570">
    <ele>877.6</ele>
   </trkpt>
   <trkpt lat="42.1303460" lon="1.6037320">
    <ele>878.4</ele>
   </trkpt>
   <trkpt lat="42.1303520" lon="1.6037230">
    <ele>878.6</ele>
   </trkpt>
   <trkpt lat="42.1303670" lon="1.6036990">
    <ele>879.2</ele>
   </trkpt>
   <trkpt lat="42.1303610" lon="1.6036790">
    <ele>879.6</ele>
   </trkpt>
   <trkpt lat="42.1303650" lon="1.6036710">
    <ele>879.6</ele>
   </trkpt>
   <trkpt lat="42.1303690" lon="1.6036610">
    <ele>879.8</ele>
   </trkpt>
   <trkpt lat="42.1303780" lon="1.6036150">
    <ele>880.4</ele>
   </trkpt>
   <trkpt lat="42.1303830" lon="1.6035930">
    <ele>881.0</ele>
   </trkpt>
   <trkpt lat="42.1303910" lon="1.6035820">
    <ele>881.2</ele>
   </trkpt>
   <trkpt lat="42.1304000" lon="1.6035680">
    <ele>881.6</ele>
   </trkpt>
   <trkpt lat="42.1304050" lon="1.6035340">
    <ele>882.0</ele>
   </trkpt>
   <trkpt lat="42.1304080" lon="1.6035210">
    <ele>882.2</ele>
   </trkpt>
   <trkpt lat="42.1304140" lon="1.6035010">
    <ele>882.4</ele>
   </trkpt>
   <trkpt lat="42.1304110" lon="1.6034910">
    <ele>882.8</ele>
   </trkpt>
   <trkpt lat="42.1304070" lon="1.6034580">
    <ele>883.0</ele>
   </trkpt>
   <trkpt lat="42.1304060" lon="1.6034460">
    <ele>883.2</ele>
   </trkpt>
   <trkpt lat="42.1304130" lon="1.6034190">
    <ele>884.2</ele>
   </trkpt>
   <trkpt lat="42.1304140" lon="1.6034110">
    <ele>884.6</ele>
   </trkpt>
   <trkpt lat="42.1304100" lon="1.6033800">
    <ele>885.4</ele>
   </trkpt>
   <trkpt lat="42.1304080" lon="1.6033500">
    <ele>886.2</ele>
   </trkpt>
   <trkpt lat="42.1304060" lon="1.6033360">
    <ele>886.6</ele>
   </trkpt>
   <trkpt lat="42.1304030" lon="1.6032970">
    <ele>887.4</ele>
   </trkpt>
   <trkpt lat="42.1303990" lon="1.6032850">
    <ele>887.8</ele>
   </trkpt>
   <trkpt lat="42.1303970" lon="1.6032740">
    <ele>888.0</ele>
   </trkpt>
   <trkpt lat="42.1303940" lon="1.6032470">
    <ele>888.4</ele>
   </trkpt>
   <trkpt lat="42.1303800" lon="1.6032120">
    <ele>889.0</ele>
   </trkpt>
   <trkpt lat="42.1303750" lon="1.6032010">
    <ele>889.4</ele>
   </trkpt>
   <trkpt lat="42.1303750" lon="1.6031900">
    <ele>889.6</ele>
   </trkpt>
   <trkpt lat="42.1303720" lon="1.6031780">
    <ele>890.0</ele>
   </trkpt>
   <trkpt lat="42.1303720" lon="1.6031690">
    <ele>890.2</ele>
   </trkpt>
   <trkpt lat="42.1303630" lon="1.6031330">
    <ele>890.4</ele>
   </trkpt>
   <trkpt lat="42.1303650" lon="1.6031230">
    <ele>890.6</ele>
   </trkpt>
   <trkpt lat="42.1303710" lon="1.6031120">
    <ele>891.0</ele>
   </trkpt>
   <trkpt lat="42.1303890" lon="1.6030820">
    <ele>891.6</ele>
   </trkpt>
   <trkpt lat="42.1303920" lon="1.6030680">
    <ele>892.2</ele>
   </trkpt>
   <trkpt lat="42.1303990" lon="1.6030580">
    <ele>892.6</ele>
   </trkpt>
   <trkpt lat="42.1304140" lon="1.6030240">
    <ele>893.0</ele>
   </trkpt>
   <trkpt lat="42.1304130" lon="1.6030200">
    <ele>893.2</ele>
   </trkpt>
   <trkpt lat="42.1304170" lon="1.6030140">
    <ele>893.6</ele>
   </trkpt>
   <trkpt lat="42.1304190" lon="1.6030060">
    <ele>893.8</ele>
   </trkpt>
   <trkpt lat="42.1304220" lon="1.6029780">
    <ele>894.4</ele>
   </trkpt>
   <trkpt lat="42.1304320" lon="1.6029100">
    <ele>895.4</ele>
   </trkpt>
   <trkpt lat="42.1304300" lon="1.6028960">
    <ele>895.6</ele>
   </trkpt>
   <trkpt lat="42.1304380" lon="1.6028800">
    <ele>896.2</ele>
   </trkpt>
   <trkpt lat="42.1304460" lon="1.6028610">
    <ele>896.6</ele>
   </trkpt>
   <trkpt lat="42.1304570" lon="1.6028340">
    <ele>897.0</ele>
   </trkpt>
   <trkpt lat="42.1304610" lon="1.6028210">
    <ele>897.2</ele>
   </trkpt>
   <trkpt lat="42.1304570" lon="1.6028000">
    <ele>897.4</ele>
   </trkpt>
   <trkpt lat="42.1304590" lon="1.6027770">
    <ele>898.0</ele>
   </trkpt>
   <trkpt lat="42.1304720" lon="1.6027350">
    <ele>898.8</ele>
   </trkpt>
   <trkpt lat="42.1304730" lon="1.6027200">
    <ele>899.0</ele>
   </trkpt>
   <trkpt lat="42.1304800" lon="1.6027120">
    <ele>899.4</ele>
   </trkpt>
   <trkpt lat="42.1304840" lon="1.6026980">
    <ele>899.8</ele>
   </trkpt>
   <trkpt lat="42.1304810" lon="1.6026880">
    <ele>900.2</ele>
   </trkpt>
   <trkpt lat="42.1304880" lon="1.6026790">
    <ele>900.2</ele>
   </trkpt>
   <trkpt lat="42.1305070" lon="1.6026400">
    <ele>901.0</ele>
   </trkpt>
   <trkpt lat="42.1305170" lon="1.6026230">
    <ele>901.2</ele>
   </trkpt>
   <trkpt lat="42.1305300" lon="1.6026000">
    <ele>901.6</ele>
   </trkpt>
   <trkpt lat="42.1305510" lon="1.6025620">
    <ele>902.2</ele>
   </trkpt>
   <trkpt lat="42.1305530" lon="1.6025500">
    <ele>902.4</ele>
   </trkpt>
   <trkpt lat="42.1305630" lon="1.6025340">
    <ele>903.0</ele>
   </trkpt>
   <trkpt lat="42.1305740" lon="1.6025230">
    <ele>903.2</ele>
   </trkpt>
   <trkpt lat="42.1305800" lon="1.6025150">
    <ele>903.4</ele>
   </trkpt>
   <trkpt lat="42.1305820" lon="1.6024560">
    <ele>904.6</ele>
   </trkpt>
   <trkpt lat="42.1305930" lon="1.6024260">
    <ele>905.0</ele>
   </trkpt>
   <trkpt lat="42.1306070" lon="1.6023900">
    <ele>905.6</ele>
   </trkpt>
   <trkpt lat="42.1306310" lon="1.6023800">
    <ele>906.2</ele>
   </trkpt>
   <trkpt lat="42.1306570" lon="1.6023560">
    <ele>906.4</ele>
   </trkpt>
   <trkpt lat="42.1306630" lon="1.6023490">
    <ele>906.8</ele>
   </trkpt>
   <trkpt lat="42.1306610" lon="1.6023330">
    <ele>907.2</ele>
   </trkpt>
   <trkpt lat="42.1306630" lon="1.6023230">
    <ele>907.4</ele>
   </trkpt>
   <trkpt lat="42.1306650" lon="1.6023060">
    <ele>907.4</ele>
   </trkpt>
   <trkpt lat="42.1306660" lon="1.6022890">
    <ele>908.0</ele>
   </trkpt>
   <trkpt lat="42.1306650" lon="1.6022290">
    <ele>908.8</ele>
   </trkpt>
   <trkpt lat="42.1306670" lon="1.6022100">
    <ele>909.0</ele>
   </trkpt>
   <trkpt lat="42.1306650" lon="1.6021860">
    <ele>909.4</ele>
   </trkpt>
   <trkpt lat="42.1306640" lon="1.6021600">
    <ele>910.0</ele>
   </trkpt>
   <trkpt lat="42.1306560" lon="1.6021430">
    <ele>910.4</ele>
   </trkpt>
   <trkpt lat="42.1306630" lon="1.6021160">
    <ele>910.6</ele>
   </trkpt>
   <trkpt lat="42.1306730" lon="1.6020980">
    <ele>910.8</ele>
   </trkpt>
   <trkpt lat="42.1306880" lon="1.6020840">
    <ele>911.4</ele>
   </trkpt>
   <trkpt lat="42.1307020" lon="1.6020530">
    <ele>912.2</ele>
   </trkpt>
   <trkpt lat="42.1307080" lon="1.6020380">
    <ele>912.6</ele>
   </trkpt>
   <trkpt lat="42.1307270" lon="1.6019990">
    <ele>913.2</ele>
   </trkpt>
   <trkpt lat="42.1307320" lon="1.6019620">
    <ele>913.6</ele>
   </trkpt>
   <trkpt lat="42.1307520" lon="1.6019130">
    <ele>914.0</ele>
   </trkpt>
   <trkpt lat="42.1307680" lon="1.6018980">
    <ele>914.4</ele>
   </trkpt>
   <trkpt lat="42.1307820" lon="1.6018640">
    <ele>914.8</ele>
   </trkpt>
   <trkpt lat="42.1307850" lon="1.6018550">
    <ele>915.2</ele>
   </trkpt>
   <trkpt lat="42.1307800" lon="1.6018260">
    <ele>915.8</ele>
   </trkpt>
   <trkpt lat="42.1307970" lon="1.6017730">
    <ele>916.8</ele>
   </trkpt>
   <trkpt lat="42.1308030" lon="1.6017610">
    <ele>917.0</ele>
   </trkpt>
   <trkpt lat="42.1308150" lon="1.6016610">
    <ele>917.6</ele>
   </trkpt>
   <trkpt lat="42.1308290" lon="1.6016100">
    <ele>918.0</ele>
   </trkpt>
   <trkpt lat="42.1308400" lon="1.6015660">
    <ele>918.4</ele>
   </trkpt>
   <trkpt lat="42.1308500" lon="1.6015390">
    <ele>918.4</ele>
   </trkpt>
   <trkpt lat="42.1308580" lon="1.6015160">
    <ele>918.6</ele>
   </trkpt>
   <trkpt lat="42.1308800" lon="1.6014940">
    <ele>919.2</ele>
   </trkpt>
   <trkpt lat="42.1308980" lon="1.6014420">
    <ele>919.4</ele>
   </trkpt>
   <trkpt lat="42.1309020" lon="1.6014270">
    <ele>919.6</ele>
   </trkpt>
   <trkpt lat="42.1309300" lon="1.6013440">
    <ele>920.0</ele>
   </trkpt>
   <trkpt lat="42.1309390" lon="1.6013110">
    <ele>920.2</ele>
   </trkpt>
   <trkpt lat="42.1309400" lon="1.6012960">
    <ele>920.4</ele>
   </trkpt>
   <trkpt lat="42.1309470" lon="1.6012320">
    <ele>920.8</ele>
   </trkpt>
   <trkpt lat="42.1309520" lon="1.6012130">
    <ele>920.8</ele>
   </trkpt>
   <trkpt lat="42.1309600" lon="1.6011710">
    <ele>921.0</ele>
   </trkpt>
   <trkpt lat="42.1309590" lon="1.6011570">
    <ele>921.2</ele>
   </trkpt>
   <trkpt lat="42.1309920" lon="1.6010470">
    <ele>922.4</ele>
   </trkpt>
   <trkpt lat="42.1310310" lon="1.6009540">
    <ele>922.0</ele>
   </trkpt>
   <trkpt lat="42.1310310" lon="1.6008750">
    <ele>922.0</ele>
   </trkpt>
   <trkpt lat="42.1310330" lon="1.6007220">
    <ele>922.8</ele>
   </trkpt>
   <trkpt lat="42.1310460" lon="1.6006570">
    <ele>923.2</ele>
   </trkpt>
   <trkpt lat="42.1310730" lon="1.6005850">
    <ele>923.6</ele>
   </trkpt>
   <trkpt lat="42.1310750" lon="1.6005570">
    <ele>924.0</ele>
   </trkpt>
   <trkpt lat="42.1310830" lon="1.6005250">
    <ele>924.2</ele>
   </trkpt>
   <trkpt lat="42.1310930" lon="1.6005000">
    <ele>924.2</ele>
   </trkpt>
   <trkpt lat="42.1310950" lon="1.6004770">
    <ele>924.4</ele>
   </trkpt>
   <trkpt lat="42.1310970" lon="1.6004590">
    <ele>924.6</ele>
   </trkpt>
   <trkpt lat="42.1311080" lon="1.6004160">
    <ele>924.6</ele>
   </trkpt>
   <trkpt lat="42.1311150" lon="1.6003620">
    <ele>924.8</ele>
   </trkpt>
   <trkpt lat="42.1311070" lon="1.6002910">
    <ele>925.0</ele>
   </trkpt>
   <trkpt lat="42.1311040" lon="1.6002310">
    <ele>925.2</ele>
   </trkpt>
   <trkpt lat="42.1311050" lon="1.6001650">
    <ele>925.6</ele>
   </trkpt>
   <trkpt lat="42.1311070" lon="1.6001360">
    <ele>926.0</ele>
   </trkpt>
   <trkpt lat="42.1311140" lon="1.6000970">
    <ele>926.2</ele>
   </trkpt>
   <trkpt lat="42.1311190" lon="1.6000750">
    <ele>926.2</ele>
   </trkpt>
   <trkpt lat="42.1311610" lon="1.5999510">
    <ele>926.6</ele>
   </trkpt>
   <trkpt lat="42.1311600" lon="1.5999220">
    <ele>926.8</ele>
   </trkpt>
   <trkpt lat="42.1311670" lon="1.5998830">
    <ele>927.0</ele>
   </trkpt>
   <trkpt lat="42.1311500" lon="1.5997620">
    <ele>927.2</ele>
   </trkpt>
   <trkpt lat="42.1311420" lon="1.5995940">
    <ele>927.0</ele>
   </trkpt>
   <trkpt lat="42.1311170" lon="1.5994630">
    <ele>928.0</ele>
   </trkpt>
   <trkpt lat="42.1311270" lon="1.5994280">
    <ele>928.2</ele>
   </trkpt>
   <trkpt lat="42.1311730" lon="1.5992900">
    <ele>929.2</ele>
   </trkpt>
   <trkpt lat="42.1311760" lon="1.5992580">
    <ele>929.4</ele>
   </trkpt>
   <trkpt lat="42.1311720" lon="1.5991970">
    <ele>929.4</ele>
   </trkpt>
   <trkpt lat="42.1311690" lon="1.5991130">
    <ele>929.4</ele>
   </trkpt>
   <trkpt lat="42.1311720" lon="1.5990810">
    <ele>929.4</ele>
   </trkpt>
   <trkpt lat="42.1311730" lon="1.5989380">
    <ele>929.0</ele>
   </trkpt>
   <trkpt lat="42.1311730" lon="1.5987450">
    <ele>928.4</ele>
   </trkpt>
   <trkpt lat="42.1311040" lon="1.5985600">
    <ele>929.4</ele>
   </trkpt>
   <trkpt lat="42.1310650" lon="1.5983640">
    <ele>930.2</ele>
   </trkpt>
   <trkpt lat="42.1310610" lon="1.5983310">
    <ele>930.6</ele>
   </trkpt>
   <trkpt lat="42.1310720" lon="1.5982100">
    <ele>931.8</ele>
   </trkpt>
   <trkpt lat="42.1310640" lon="1.5981300">
    <ele>932.4</ele>
   </trkpt>
   <trkpt lat="42.1310710" lon="1.5980070">
    <ele>933.0</ele>
   </trkpt>
   <trkpt lat="42.1310760" lon="1.5979780">
    <ele>933.0</ele>
   </trkpt>
   <trkpt lat="42.1310810" lon="1.5978600">
    <ele>934.0</ele>
   </trkpt>
   <trkpt lat="42.1310550" lon="1.5978240">
    <ele>934.2</ele>
   </trkpt>
   <trkpt lat="42.1310490" lon="1.5977820">
    <ele>935.2</ele>
   </trkpt>
   <trkpt lat="42.1310480" lon="1.5977380">
    <ele>936.0</ele>
   </trkpt>
   <trkpt lat="42.1310470" lon="1.5977210">
    <ele>936.4</ele>
   </trkpt>
   <trkpt lat="42.1310560" lon="1.5976270">
    <ele>937.4</ele>
   </trkpt>
   <trkpt lat="42.1310550" lon="1.5975960">
    <ele>937.8</ele>
   </trkpt>
   <trkpt lat="42.1310370" lon="1.5975640">
    <ele>938.2</ele>
   </trkpt>
   <trkpt lat="42.1310260" lon="1.5975220">
    <ele>938.6</ele>
   </trkpt>
   <trkpt lat="42.1310160" lon="1.5974700">
    <ele>939.2</ele>
   </trkpt>
   <trkpt lat="42.1310190" lon="1.5973960">
    <ele>938.8</ele>
   </trkpt>
   <trkpt lat="42.1310250" lon="1.5973190">
    <ele>938.6</ele>
   </trkpt>
   <trkpt lat="42.1310220" lon="1.5972890">
    <ele>938.6</ele>
   </trkpt>
   <trkpt lat="42.1310260" lon="1.5972640">
    <ele>938.4</ele>
   </trkpt>
   <trkpt lat="42.1310330" lon="1.5971750">
    <ele>939.8</ele>
   </trkpt>
   <trkpt lat="42.1310400" lon="1.5971510">
    <ele>940.4</ele>
   </trkpt>
   <trkpt lat="42.1310440" lon="1.5971390">
    <ele>940.6</ele>
   </trkpt>
   <trkpt lat="42.1310560" lon="1.5970750">
    <ele>940.8</ele>
   </trkpt>
   <trkpt lat="42.1310700" lon="1.5969610">
    <ele>940.8</ele>
   </trkpt>
   <trkpt lat="42.1310630" lon="1.5969360">
    <ele>940.8</ele>
   </trkpt>
   <trkpt lat="42.1310620" lon="1.5968760">
    <ele>940.8</ele>
   </trkpt>
   <trkpt lat="42.1310750" lon="1.5967970">
    <ele>941.2</ele>
   </trkpt>
   <trkpt lat="42.1311250" lon="1.5965520">
    <ele>941.6</ele>
   </trkpt>
   <trkpt lat="42.1311280" lon="1.5964570">
    <ele>942.0</ele>
   </trkpt>
   <trkpt lat="42.1311370" lon="1.5964410">
    <ele>942.2</ele>
   </trkpt>
   <trkpt lat="42.1311500" lon="1.5964160">
    <ele>942.4</ele>
   </trkpt>
   <trkpt lat="42.1311410" lon="1.5963780">
    <ele>942.4</ele>
   </trkpt>
   <trkpt lat="42.1311350" lon="1.5963270">
    <ele>942.8</ele>
   </trkpt>
   <trkpt lat="42.1311160" lon="1.5962640">
    <ele>943.2</ele>
   </trkpt>
   <trkpt lat="42.1311090" lon="1.5962010">
    <ele>943.4</ele>
   </trkpt>
   <trkpt lat="42.1311140" lon="1.5961270">
    <ele>944.4</ele>
   </trkpt>
   <trkpt lat="42.1311240" lon="1.5960330">
    <ele>944.8</ele>
   </trkpt>
   <trkpt lat="42.1311430" lon="1.5958950">
    <ele>944.8</ele>
   </trkpt>
   <trkpt lat="42.1311440" lon="1.5958710">
    <ele>945.2</ele>
   </trkpt>
   <trkpt lat="42.1311440" lon="1.5958480">
    <ele>945.4</ele>
   </trkpt>
   <trkpt lat="42.1311480" lon="1.5957610">
    <ele>945.2</ele>
   </trkpt>
   <trkpt lat="42.1311610" lon="1.5956750">
    <ele>945.2</ele>
   </trkpt>
   <trkpt lat="42.1311630" lon="1.5956190">
    <ele>945.2</ele>
   </trkpt>
   <trkpt lat="42.1311840" lon="1.5955090">
    <ele>945.2</ele>
   </trkpt>
   <trkpt lat="42.1311740" lon="1.5954480">
    <ele>945.2</ele>
   </trkpt>
   <trkpt lat="42.1311580" lon="1.5952700">
    <ele>945.2</ele>
   </trkpt>
   <trkpt lat="42.1311630" lon="1.5951940">
    <ele>945.2</ele>
   </trkpt>
   <trkpt lat="42.1311770" lon="1.5951150">
    <ele>945.2</ele>
   </trkpt>
   <trkpt lat="42.1311890" lon="1.5949910">
    <ele>945.0</ele>
   </trkpt>
   <trkpt lat="42.1312360" lon="1.5947480">
    <ele>945.0</ele>
   </trkpt>
   <trkpt lat="42.1312450" lon="1.5946120">
    <ele>945.0</ele>
   </trkpt>
   <trkpt lat="42.1312790" lon="1.5944120">
    <ele>945.2</ele>
   </trkpt>
   <trkpt lat="42.1312790" lon="1.5943780">
    <ele>945.6</ele>
   </trkpt>
   <trkpt lat="42.1312880" lon="1.5942650">
    <ele>945.6</ele>
   </trkpt>
   <trkpt lat="42.1312910" lon="1.5942250">
    <ele>945.6</ele>
   </trkpt>
   <trkpt lat="42.1313080" lon="1.5940070">
    <ele>946.4</ele>
   </trkpt>
   <trkpt lat="42.1313140" lon="1.5939730">
    <ele>946.6</ele>
   </trkpt>
   <trkpt lat="42.1313710" lon="1.5938000">
    <ele>947.4</ele>
   </trkpt>
   <trkpt lat="42.1313820" lon="1.5937700">
    <ele>947.6</ele>
   </trkpt>
   <trkpt lat="42.1313860" lon="1.5935890">
    <ele>948.8</ele>
   </trkpt>
   <trkpt lat="42.1314060" lon="1.5934350">
    <ele>949.8</ele>
   </trkpt>
   <trkpt lat="42.1314140" lon="1.5933770">
    <ele>950.4</ele>
   </trkpt>
   <trkpt lat="42.1314140" lon="1.5933200">
    <ele>951.2</ele>
   </trkpt>
   <trkpt lat="42.1314240" lon="1.5931940">
    <ele>951.8</ele>
   </trkpt>
   <trkpt lat="42.1314510" lon="1.5929950">
    <ele>952.0</ele>
   </trkpt>
   <trkpt lat="42.1314530" lon="1.5929670">
    <ele>952.2</ele>
   </trkpt>
   <trkpt lat="42.1314400" lon="1.5928120">
    <ele>952.4</ele>
   </trkpt>
   <trkpt lat="42.1314560" lon="1.5925650">
    <ele>953.0</ele>
   </trkpt>
   <trkpt lat="42.1314650" lon="1.5924780">
    <ele>953.2</ele>
   </trkpt>
   <trkpt lat="42.1314910" lon="1.5924060">
    <ele>953.4</ele>
   </trkpt>
   <trkpt lat="42.1315620" lon="1.5922120">
    <ele>953.2</ele>
   </trkpt>
   <trkpt lat="42.1316370" lon="1.5920350">
    <ele>951.8</ele>
   </trkpt>
   <trkpt lat="42.1317080" lon="1.5919090">
    <ele>951.0</ele>
   </trkpt>
   <trkpt lat="42.1317270" lon="1.5918900">
    <ele>950.8</ele>
   </trkpt>
   <trkpt lat="42.1317900" lon="1.5918060">
    <ele>949.6</ele>
   </trkpt>
   <trkpt lat="42.1318050" lon="1.5917900">
    <ele>949.2</ele>
   </trkpt>
   <trkpt lat="42.1318170" lon="1.5917700">
    <ele>948.6</ele>
   </trkpt>
   <trkpt lat="42.1318700" lon="1.5917000">
    <ele>947.8</ele>
   </trkpt>
   <trkpt lat="42.1318900" lon="1.5916790">
    <ele>947.6</ele>
   </trkpt>
   <trkpt lat="42.1319490" lon="1.5916290">
    <ele>946.4</ele>
   </trkpt>
   <trkpt lat="42.1319770" lon="1.5915920">
    <ele>946.2</ele>
   </trkpt>
   <trkpt lat="42.1320210" lon="1.5915540">
    <ele>945.4</ele>
   </trkpt>
   <trkpt lat="42.1321170" lon="1.5914760">
    <ele>944.2</ele>
   </trkpt>
   <trkpt lat="42.1322440" lon="1.5913620">
    <ele>943.2</ele>
   </trkpt>
   <trkpt lat="42.1323730" lon="1.5912820">
    <ele>942.2</ele>
   </trkpt>
   <trkpt lat="42.1323990" lon="1.5912610">
    <ele>941.6</ele>
   </trkpt>
   <trkpt lat="42.1324770" lon="1.5912050">
    <ele>941.0</ele>
   </trkpt>
   <trkpt lat="42.1325860" lon="1.5911340">
    <ele>940.4</ele>
   </trkpt>
   <trkpt lat="42.1326820" lon="1.5910580">
    <ele>939.8</ele>
   </trkpt>
   <trkpt lat="42.1327700" lon="1.5909860">
    <ele>939.2</ele>
   </trkpt>
   <trkpt lat="42.1328260" lon="1.5909540">
    <ele>938.8</ele>
   </trkpt>
   <trkpt lat="42.1330110" lon="1.5908560">
    <ele>938.4</ele>
   </trkpt>
   <trkpt lat="42.1331870" lon="1.5907540">
    <ele>940.0</ele>
   </trkpt>
   <trkpt lat="42.1332100" lon="1.5907340">
    <ele>940.4</ele>
   </trkpt>
   <trkpt lat="42.1332930" lon="1.5906790">
    <ele>941.4</ele>
   </trkpt>
   <trkpt lat="42.1333610" lon="1.5906310">
    <ele>942.4</ele>
   </trkpt>
   <trkpt lat="42.1334220" lon="1.5905950">
    <ele>943.4</ele>
   </trkpt>
   <trkpt lat="42.1334400" lon="1.5905850">
    <ele>943.6</ele>
   </trkpt>
   <trkpt lat="42.1335020" lon="1.5905330">
    <ele>944.4</ele>
   </trkpt>
   <trkpt lat="42.1335200" lon="1.5905260">
    <ele>944.8</ele>
   </trkpt>
   <trkpt lat="42.1335790" lon="1.5904960">
    <ele>946.0</ele>
   </trkpt>
   <trkpt lat="42.1335950" lon="1.5904950">
    <ele>946.4</ele>
   </trkpt>
   <trkpt lat="42.1336270" lon="1.5904920">
    <ele>947.0</ele>
   </trkpt>
   <trkpt lat="42.1336910" lon="1.5904520">
    <ele>948.4</ele>
   </trkpt>
   <trkpt lat="42.1337370" lon="1.5904680">
    <ele>948.8</ele>
   </trkpt>
   <trkpt lat="42.1337850" lon="1.5904880">
    <ele>949.4</ele>
   </trkpt>
   <trkpt lat="42.1338750" lon="1.5905230">
    <ele>949.8</ele>
   </trkpt>
   <trkpt lat="42.1339440" lon="1.5905480">
    <ele>950.6</ele>
   </trkpt>
   <trkpt lat="42.1339840" lon="1.5905630">
    <ele>951.2</ele>
   </trkpt>
   <trkpt lat="42.1340540" lon="1.5905760">
    <ele>951.8</ele>
   </trkpt>
   <trkpt lat="42.1341190" lon="1.5906400">
    <ele>952.0</ele>
   </trkpt>
   <trkpt lat="42.1341370" lon="1.5907920">
    <ele>952.0</ele>
   </trkpt>
   <trkpt lat="42.1341230" lon="1.5909980">
    <ele>950.6</ele>
   </trkpt>
   <trkpt lat="42.1341180" lon="1.5910350">
    <ele>950.2</ele>
   </trkpt>
   <trkpt lat="42.1341020" lon="1.5911850">
    <ele>949.2</ele>
   </trkpt>
   <trkpt lat="42.1341040" lon="1.5912240">
    <ele>949.0</ele>
   </trkpt>
   <trkpt lat="42.1340580" lon="1.5913250">
    <ele>948.2</ele>
   </trkpt>
   <trkpt lat="42.1340550" lon="1.5914410">
    <ele>947.0</ele>
   </trkpt>
   <trkpt lat="42.1341060" lon="1.5917160">
    <ele>945.8</ele>
   </trkpt>
   <trkpt lat="42.1341040" lon="1.5917540">
    <ele>945.6</ele>
   </trkpt>
   <trkpt lat="42.1341200" lon="1.5919210">
    <ele>944.4</ele>
   </trkpt>
   <trkpt lat="42.1341140" lon="1.5919530">
    <ele>944.0</ele>
   </trkpt>
   <trkpt lat="42.1340980" lon="1.5920850">
    <ele>943.4</ele>
   </trkpt>
   <trkpt lat="42.1340780" lon="1.5922360">
    <ele>943.0</ele>
   </trkpt>
   <trkpt lat="42.1340700" lon="1.5923010">
    <ele>942.2</ele>
   </trkpt>
   <trkpt lat="42.1340710" lon="1.5923210">
    <ele>941.8</ele>
   </trkpt>
   <trkpt lat="42.1340820" lon="1.5923360">
    <ele>941.6</ele>
   </trkpt>
   <trkpt lat="42.1341510" lon="1.5923530">
    <ele>941.0</ele>
   </trkpt>
   <trkpt lat="42.1341770" lon="1.5923600">
    <ele>940.8</ele>
   </trkpt>
   <trkpt lat="42.1342840" lon="1.5923890">
    <ele>940.4</ele>
   </trkpt>
   <trkpt lat="42.1344500" lon="1.5924420">
    <ele>940.2</ele>
   </trkpt>
   <trkpt lat="42.1344750" lon="1.5924570">
    <ele>940.2</ele>
   </trkpt>
   <trkpt lat="42.1345120" lon="1.5925020">
    <ele>940.2</ele>
   </trkpt>
   <trkpt lat="42.1345190" lon="1.5925510">
    <ele>940.2</ele>
   </trkpt>
   <trkpt lat="42.1345080" lon="1.5925880">
    <ele>940.4</ele>
   </trkpt>
   <trkpt lat="42.1345180" lon="1.5926460">
    <ele>940.2</ele>
   </trkpt>
   <trkpt lat="42.1345370" lon="1.5926660">
    <ele>940.0</ele>
   </trkpt>
   <trkpt lat="42.1346370" lon="1.5927150">
    <ele>939.2</ele>
   </trkpt>
   <trkpt lat="42.1347790" lon="1.5927780">
    <ele>939.0</ele>
   </trkpt>
   <trkpt lat="42.1348530" lon="1.5928140">
    <ele>939.2</ele>
   </trkpt>
   <trkpt lat="42.1349580" lon="1.5928830">
    <ele>939.8</ele>
   </trkpt>
  </trkseg>
 </trk>
</gpx>
